[{"lon":21.4174425,"id":172348137,"type":"node","lat":42.005709,"tags":{"contact:phone":"+38923117669","fee":"yes","name":"Природонаучен Музеј","opening_hours":"Tu-Su 09:00-16:00","name:pl":"Muzeum Przyrodnicze","tourism":"museum","name:en":"Macedonian Museum of Natural History","wikipedia":"mk:Природонаучен музеј на Македонија","wikidata":"Q20567394","wikimedia_commons":"Category:Macedonian Museum of Natural History","name:tr":"Ulusal Tarih Müzesi"}},{"lon":21.4233737,"id":367860262,"type":"node","lat":42.0032812,"tags":{"historic":"monument","name":"Гоце Делчев"}},{"lon":21.4338778,"id":369750026,"type":"node","lat":42.0008716,"tags":{"access":"no","barrier":"entrance","historic":"city_gate","name":"Влез на Скопското кале","name:en":"Skopje Fortress Gate"}},{"lon":20.960153,"id":373488269,"type":"node","lat":42.0195738,"tags":{"historic":"ruins","name":"Тетовско Кале","name:en":"Tetovo Fortress","wikipedia":"mk:Тетовско кале","wikidata":"Q12910952"}},{"lon":22.0228463,"id":382635381,"type":"node","lat":41.4325212,"tags":{"historic":"monument","name":"Костурница","tourism":"attraction","name:en":"Kosturnica"}},{"lon":20.7914836,"id":390757439,"type":"node","lat":41.1155576,"tags":{"historic":"archaeological_site","name:la":"Lychnidos","name":"Лихнид","wikipedia":"it:Lychnidos"}},{"lon":21.257898,"id":410115784,"type":"node","lat":41.3377228,"tags":{"int_name":"Mečkin Kamen","historic":"monument","name":"Мечкин Камен","tourism":"attraction","name:en":"Mechkin Kamen"}},{"lon":21.2273776,"id":410115785,"type":"node","lat":41.3880768,"tags":{"int_name":"Sliva","historic":"monument","name":"Слива"}},{"lon":22.4069917,"id":444334991,"type":"node","lat":41.9188903,"tags":{"int_name":"Spomenik na slobodata","historic":"monument","name":"Споменик на слободата","tourism":"attraction","name:en":"Monument of Freedom","wikipedia":"mk:Споменик на слободата (Кочани)","wikidata":"Q3402642"}},{"lon":22.8566138,"id":478699817,"type":"node","lat":41.7077548,"tags":{"website":"http:\/\/www.berovo.gov.mk\/index.php?option=com_content&view=article&id=76&Itemid=117","name":"Музеј на град Берово","tourism":"museum","name:en":"Berovo Town Museum"}},{"lon":20.679835,"id":495558836,"type":"node","lat":41.1776616,"tags":{"int_name":"Spomenik na Revolucijata","historic":"monument","name":"Споменик на Револуцијата","name:en":"Monument of the Revolution"}},{"lon":22.0163228,"id":529811458,"type":"node","lat":41.4343634,"tags":{"name":"Музеј Галерија Кавадарци","tourism":"museum","name:en":"Muzej Galerija Kavadarci"}},{"lon":20.7961416,"id":534925163,"type":"node","lat":41.112361,"tags":{"addr:housenumber":"62","int_name":"Robev Family House","website":"http:\/\/muzejohrid.mk\/en\/house-of-robev-family","name":"Куќа на Робевци","opening_hours":"Tu-Su 09:00-14:00","name:fr":"Maison de la famille Robev \u2014 Musée archéologique de la ville","tourism":"museum","name:en":"Robev Family House","addr:street":"Цар Самоил","building":"house","name:tr":"Robevi Evi","name:zh":"罗贝夫家族宅邸国家博物馆"}},{"lon":21.4314474,"id":908273421,"type":"node","lat":41.9959035,"tags":{"historic":"monument","artist_name":"Валентина Стефановска","tourism":"artwork","artwork_type":"statue","wikimedia_commons":"Category:Warrior on Horseback (Skopje)","layer":"2","int_name":"Voin na Konj","name":"Споменик на Александар Македонски","name:en":"Statue of Alexander the Great","memorial":"statue","wikipedia":"mk:Воин на коњ (Скопје)","wikidata":"Q3497603","start_date":"08.09.2011"}},{"lon":22.5049622,"id":1272898175,"type":"node","lat":41.8841902,"tags":{"addr:housenumber":"1a","name":"Museum Teracotta","tourism":"museum"}},{"lon":20.5620379,"id":1452854994,"type":"node","lat":41.6346281,"tags":{"historic":"memorial","name":"Lukov","was:natural":"spring"}},{"lon":21.3527926,"id":1475328742,"type":"node","lat":42.0586697,"tags":{"historic":"archaeological_site","is_in":"Orman","name":"Rimska crkva"}},{"lon":21.3548716,"id":1475331129,"type":"node","lat":42.0843452,"tags":{"archaeological_site":"fortification","int_name":"Davina Kula","historic":"archaeological_site","name":"Давина Кула","name:en":"Davina Kula"}},{"lon":21.2786993,"id":1475333181,"type":"node","lat":42.0587494,"tags":{"historic":"archaeological_site","name":"Голема Кула - Кучково"}},{"lon":21.2844339,"id":1475333182,"type":"node","lat":42.0585741,"tags":{"historic":"archaeological_site","name":"Мала Кула - Кучково"}},{"lon":22.3705411,"id":1612155052,"type":"node","lat":42.3089612,"tags":{"boundary":"marker","ref":"105","historic":"boundary_stone","natural":"peak","marker":"stone","name":"Китка","ele":"1327.6"}},{"lon":21.7200501,"id":1708412126,"type":"node","lat":42.1355189,"tags":{"historic":"monument","name":"Zena","layer":"2","name:mk":"Жена"}},{"lon":21.2991931,"id":1831180502,"type":"node","lat":41.9505936,"tags":{"int_name":"Manastir Sv. Andrej","historic":"monument","amenity":"place_of_worship","name":"Манастир Св. Андреј","name:pl":"Cerkiew św. Andrzeja","tourism":"attraction","name:en":"Monastery St. Andrej","place_of_worship:type":"monastery","denomination":"orthodox","name:tr":"Monastery St. Andrej","religion":"christian"}},{"lon":22.7221034,"id":1853704787,"type":"node","lat":41.1871817,"tags":{"name":"Музеј на Дојран","tourism":"museum"}},{"lon":21.4617772,"id":1857486060,"type":"node","lat":42.0017233,"tags":{"historic":"monument","name":"Филип Втори","layer":"1"}},{"lon":21.4349949,"id":1859114111,"type":"node","lat":41.9984602,"tags":{"image":"https:\/\/upload.wikimedia.org\/wikipedia\/commons\/d\/d2\/Philip_II_of_Macedon_monument_in_Skopje.JPG","name:de":"Philipp II. (Makedonien)","historic":"memorial","subject:wikidata":"Q130650","name":"Филип II Македонски","inscription":"Филип II Македонски","name:pl":"Filip II Macedoński","tourism":"artwork","name:en":"Philip II of Macedon","artwork_type":"statue","memorial":"statue","subject:wikipedia":"mk:Филип II Македонски"}},{"lon":21.4254968,"id":1866944575,"type":"node","lat":41.9983057,"tags":{"int_name":"Sv. Kliment Ohridski","historic":"memorial","name":"Св. Климент Охридски","inscription":"Св. Климент Охридски","tourism":"artwork","name:en":"Clement of Ohrid","artwork_type":"statue","memorial":"statue","wikipedia":"mk:Свети Климент Охридски","wikidata":"Q158504"}},{"lon":21.437162,"id":1867151652,"type":"node","lat":41.9993163,"tags":{"name:de":"Skanderbeg","historic":"memorial","name":"Скендербег","inscription":"Скендербег","tourism":"artwork","name:en":"Skanderbeg","artwork_type":"statue","memorial":"statue","wikipedia":"en:Skanderbeg","wikidata":"Q12289741","wikimedia_commons":"Category:Skenderbeg Monument (Skopje)","name:sq":"Skënderbeu"}},{"lon":21.1195933,"id":1867606193,"type":"node","lat":40.8570205,"tags":{"historic":"monument","name":"Маркова Нога","source":"Bing"}},{"lon":21.809838,"id":1879436069,"type":"node","lat":42.1706665,"tags":{"historic:civilization":"prehistoric","historic":"archaeological_site","name":"Костоперска Карпа","tourism":"attraction","wikipedia":"mk:Костоперска Карпа","wikidata":"Q20570399"}},{"lon":21.953118,"id":1879461479,"type":"node","lat":42.2633818,"tags":{"archaeological_site":"megalith","historic":"archaeological_site","name":"Кокино","tourism":"attraction","historic:period":"Bronze Age","wikipedia":"mk:Кокино (локалитет)","wikidata":"Q1326977","name:mk":"Кокино"}},{"lon":21.7194275,"id":1995790447,"type":"node","lat":42.1355778,"tags":{"int_name":"Josip Broz - Tito","historic":"monument","name":"Јосип Броз - Тито"}},{"lon":22.2447656,"id":1999950866,"type":"node","lat":41.4085959,"tags":{"name":"Museum of Wine","tourism":"museum","name:mk":"Музеј на Биното"}},{"lon":22.2541295,"id":2015829492,"type":"node","lat":41.4094203,"tags":{"int_name":"Markov Grad","historic":"ruins","name":"Марков Град","name:en":"Markov Grad"}},{"lon":21.8500367,"id":2024605291,"type":"node","lat":42.2782511,"tags":{"int_name":"Memorijalen centar ASNOM","historic":"memorial","name":"Меморијален центар АСНОМ","tourism":"attraction","name:en":"Memorial Center ASNOM","memorial":"war_memorial"}},{"lon":20.9108574,"id":2026119373,"type":"node","lat":41.794932,"tags":{"historic":"monument","name":"Sahat Kula"}},{"lon":21.1545235,"id":2026891418,"type":"node","lat":42.1068795,"tags":{"historic":"ruins","name":"Орашко Кале","name:en":"Orashko Kale"}},{"lon":20.9702432,"id":2026911763,"type":"node","lat":41.5119269,"tags":{"historic":"monument","name":"Саат кула","name:sq":"Sahat Kulla"}},{"lon":21.7840512,"id":2026930302,"type":"node","lat":41.7140782,"tags":{"historic":"monument","name":"Саат кула"}},{"lon":22.4937679,"id":2026975410,"type":"node","lat":41.2775784,"tags":{"historic":"archaeological_site","name":"Isar \/ Idomenae"}},{"lon":21.7192303,"id":2136716883,"type":"node","lat":42.1346962,"tags":{"int_name":"Kude sat","historic":"monument","name":"Куде сат"}},{"lon":21.7629669,"id":2138788013,"type":"node","lat":41.4293251,"tags":{"historic":"memorial","natural":"peak","name":"Ножот","wikipedia":"mk:Битка на Ножот","wikidata":"Q12273269","ele":"727"}},{"lon":21.5519842,"id":2189840728,"type":"node","lat":41.3451182,"tags":{"historic":"monument","name":"Народен Херој Кузман Јосифоски-Питу","name:en":"People's hero Kuzman Josifoski-Pitu","name:mk":"Народен Херој Кузман Јосифоски-Питу"}},{"lon":21.554267,"id":2189840898,"type":"node","lat":41.3451518,"tags":{"historic":"monument","name":"Пеце Атанасоски"}},{"lon":21.5522173,"id":2189840958,"type":"node","lat":41.3452617,"tags":{"historic":"monument","name":"Ѓорче Петров","name:en":"Gjorche Petrov"}},{"lon":21.2480535,"id":2268500979,"type":"node","lat":41.3748344,"tags":{"historic":"tomb","tomb":"tombstone","name":"Питу Гули"}},{"lon":21.2482546,"id":2268500995,"type":"node","lat":41.3748686,"tags":{"historic":"tomb","tomb":"tombstone","name":"Тоше Проески"}},{"lon":21.2463296,"id":2269431831,"type":"node","lat":41.3736665,"tags":{"historic":"monument","name":"Никола Карев"}},{"lon":20.6776078,"id":2279507279,"type":"node","lat":41.1805738,"tags":{"name":"Д-р Никола Незлобински","tourism":"museum"}},{"lon":21.3368929,"id":2316156278,"type":"node","lat":41.024615,"tags":{"historic":"memorial","name":"Стефан Наумов-Стив","name:en":"Stefan Naumov-Stiv"}},{"lon":21.2497316,"id":2327281126,"type":"node","lat":41.3649692,"tags":{"int_name":"Pitu Guli","historic":"monument","name":"Споменик на Питу Гули","name:en":"Statue of Pitu Guli"}},{"lon":21.2484409,"id":2330629820,"type":"node","lat":41.3653856,"tags":{"historic":"monument","material":"bronze","name":"Наум Наумоски-Борче","inscription":"Наум Наумоски-Борче\n01.09.1920 - 28.09.1960","name:en":"Naum Naumoski-Borche","memorial":"bust","name:mk":"Наум Наумоски-Борче"}},{"lon":21.9751675,"id":2350137461,"type":"node","lat":41.5516379,"tags":{"historic":"ruins","name":"Римски театар","name:en":"Roman theater","wikipedia":"en:Stobi","wikidata":"Q1371168"}},{"lon":20.951411,"id":2359124380,"type":"node","lat":41.5126479,"tags":{"gauge":"600","historic":"locomotive","name":"99.4-053","tourism":"attraction"}},{"lon":22.5001795,"id":2360747213,"type":"node","lat":41.1458586,"tags":{"historic":"monument","name":"Два Коња"}},{"lon":21.9862589,"id":2373710718,"type":"node","lat":42.0836218,"tags":{"int_name":"Cocev Kamen","historic":"archaeological_site","name":"Цоцев Камен","tourism":"attraction","name:en":"Cocev Kamen","place":"locality","wikidata":"Q599269"}},{"lon":22.0181317,"id":2535153634,"type":"node","lat":41.4184594,"tags":{"name:de":"Gedenkstätte Haus - Strascho Pindjur","name":"Спомен куќа на Страшо Пинџур","tourism":"museum","name:en":"Memorial house - Strasho Pindjur"}},{"lon":22.3348959,"id":2578029313,"type":"node","lat":42.2020133,"tags":{"name":"City Museum","tourism":"museum","addr:street":"Sveti Joakim Osogovski","addr:postcode":"1330","addr:city":"Kriva Palanka"}},{"lon":21.5564074,"id":2598104053,"type":"node","lat":41.3475544,"tags":{"historic":"monument","name":"Карпалак"}},{"lon":21.7853235,"id":2616082758,"type":"node","lat":42.1491368,"tags":{"historic":"memorial","name":"Zebrnjak","wikipedia":"en:Zebrnjak","name:sr":"Зебрњак","wikidata":"Q3400817","name:mk":"Зебрњак"}},{"lon":20.7995376,"id":2759245083,"type":"node","lat":41.1126936,"tags":{"int_name":"Saint Klement of Ohrid","historic":"monument","name":"Свети Климент Охридски","name:fr":"Saint Clément d\u2019Ohrid","tourism":"artwork","name:en":"Monument St. Clement Ohridski","artwork_type":"statue","wikipedia":"mk:Свети Климент Охридски","wikidata":"Q158504","name:tr":"Aziz Kliment Anıtı"}},{"lon":20.799994,"id":2759253188,"type":"node","lat":41.1120476,"tags":{"int_name":"Saints Cyril and Methodius","historic":"monument","name":"Свети Кирил и Методиј","name:fr":"Saints Cyrille et Méthode","tourism":"artwork","name:en":"Monuments of Saints Cyril and Methodius","artwork_type":"statue","wikipedia":"mk:Св. Кирил и Методиј","wikidata":"Q239925","name:mk":"Saints Cyril and Methodius","name:tr":"Aziz Kiril ve Aziz Metodius Anıtı"}},{"lon":20.7990226,"id":2759263738,"type":"node","lat":41.1122955,"tags":{"int_name":"Saint Naum","historic":"monument","name":"Свети Наум Охридски Чудотворец","name:fr":"Saint Naum","tourism":"artwork","name:en":"Monument to St. Naum of Ohrid","artwork_type":"statue","wikipedia":"mk:Свети Наум Охридски Чудотворец","wikidata":"Q350061","name:tr":"Aziz Naum Anıtı"}},{"lon":20.7977703,"id":2795154377,"type":"node","lat":41.1124606,"tags":{"historic":"city_gate","name":"Долна Порта","name:en":"Lower Gate"}},{"lon":21.9627449,"id":2829462221,"type":"node","lat":42.0853984,"tags":{"historic":"archaeological_site","name":"Мачка камен","name:en":"Macka kamen"}},{"lon":21.0770931,"id":2851570672,"type":"node","lat":41.4182291,"tags":{"historic":"monument","name":"Христо Узунов","wikipedia":"mk:Христо Узунов","wikidata":"Q3407165"}},{"lon":20.8135106,"id":3011061690,"type":"node","lat":41.0596796,"tags":{"historic":"wayside_shrine","name":"Sv. Nikola","tourism":"attraction","denomination":"orthodox","religion":"christian"}},{"lon":20.8132397,"id":3011065701,"type":"node","lat":41.0561451,"tags":{"note":"height roughly estimated","historic":"wayside_cross","material":"metal","height":"30"}},{"lon":20.9636151,"id":3039854149,"type":"node","lat":41.9062629,"tags":{"historic":"monument","name":"Споменик на жртви од НОВ"}},{"lon":21.5524989,"id":3409068903,"type":"node","lat":41.3460556,"tags":{"historic":"monument","name":"Александар Македонски"}},{"lon":21.5528281,"id":3409068904,"type":"node","lat":41.3462544,"tags":{"historic":"monument","name":"Методија Андонов-Ченто"}},{"lon":21.553243,"id":3409074126,"type":"node","lat":41.3462194,"tags":{"historic":"monument","name":"Св. Никола"}},{"lon":21.7360635,"id":3418320912,"type":"node","lat":41.822914,"tags":{"historic":"memorial","name":"Масакр кај Пуста Кула"}},{"lon":21.5479723,"id":3456913802,"type":"node","lat":41.3434323,"tags":{"historic":"monument","name":"Карпалак 2001"}},{"lon":21.554646,"id":3457966074,"type":"node","lat":41.3341123,"tags":{"historic":"monument","name":"Крипта","name:en":"Cript"}},{"lon":21.5548417,"id":3642663981,"type":"node","lat":41.345456,"tags":{"historic":"monument","name":"Итар Пејо","name:en":"Sly Peter"}},{"lon":22.8187714,"id":3694881124,"type":"node","lat":41.975162,"tags":{"historic":"monument","name":"Dedo Jakim - Mill","name:mk":"Воденицата на Дедо Јаким"}},{"lon":22.8193451,"id":3694922580,"type":"node","lat":41.9769054,"tags":{"historic":"monument","name":"Ilin Kamen","name:mk":"Илин Камен"}},{"lon":22.7768724,"id":3695208787,"type":"node","lat":41.9668611,"tags":{"historic":"monument","name":"Гоце Делчев (Биста)","name:en":"Goce Delchev"}},{"lon":22.7742882,"id":3695208788,"type":"node","lat":41.9643843,"tags":{"historic":"monument","name":"Гоце Делчев","name:en":"Goce Delchev"}},{"lon":22.7716387,"id":3695770497,"type":"node","lat":41.9653801,"tags":{"historic":"monument","name":"Споменик на паднати борци во НОБ"}},{"lon":22.7729986,"id":3695988841,"type":"node","lat":41.9664768,"tags":{"name":"Музеј на град Делчево","tourism":"museum","name:en":"City Museum"}},{"lon":22.7954411,"id":3696656682,"type":"node","lat":41.9425359,"tags":{"historic":"monument","name":"Кула","name:en":"Kula"}},{"lon":21.426153,"id":3713662739,"type":"node","lat":41.9952169,"tags":{"historic":"memorial","subject:wikidata":"Q9161","name":"Josip Broz Tito","tourism":"artwork","artwork_type":"statue","memorial":"statue"}},{"lon":21.4313461,"id":3951819342,"type":"node","lat":41.9682709,"tags":{"alt_name:mk":"Чрнче","historic:civilization":"byzantine","access":"yes","historic":"ruins","source":"survey;aerial imagery;gps","wikimedia_commons":"Category:Markovi Kuli (Skopje)","name:mk":"Маркови Кули","alt_name":"Чрнче","int_name":"Markovi Kuli","alt_name:en":"Črnče","name":"Маркови Кули","name:en":"Markovi Kuli","wikipedia":"mk:Маркови Кули (Водно)","wikidata":"Q12908439","ele":"515"}},{"lon":22.5093733,"id":4078676807,"type":"node","lat":41.139367,"tags":{"historic":"monument","name":"Леонид Јанков"}},{"lon":21.4339766,"id":4128156209,"type":"node","lat":41.9977079,"tags":{"int_name":"Sv. Kiril i Metodi","name:de":"Kyrill und Method","historic":"memorial","subject:wikidata":"Q239925","name":"Св. Кирил и Методиј","inscription":"Св. Кирил и Методиј","tourism":"artwork","name:en":"Saints Cyril and Methodius","artwork_type":"statue","memorial":"statue","subject:wikipedia":"mk:Св. Кирил и Методиј"}},{"lon":21.4341509,"id":4128156210,"type":"node","lat":41.9975624,"tags":{"historic":"memorial","name":"Св. Климент Охридски и Наум Охридски Чудотворец","inscription":"Св. Климент Охридски и Наум Охридски Чудотворец","tourism":"artwork","name:en":"Saints Clement of Ohrid and Naum","artwork_type":"statue","memorial":"statue","wikipedia":"mk:Свети Климент Охридски;mk:Свети Наум Охридски Чудотворец"}},{"lon":21.4313414,"id":4149143991,"type":"node","lat":41.9953917,"tags":{"historic":"memorial","artist_name":"Димитар Филиповски","tourism":"artwork","artwork_type":"statue","addr:postcode":"1000","wikimedia_commons":"Category:Samuel's Monument (Skopje)","name:de":"Zar Samuil","name":"Цар Самоил","inscription":"Цар Самоил","name:en":"Tsar Samuel","memorial":"statue","wikipedia":"mk:Споменик на Цар Самоил (Скопје)","wikidata":"Q12910631","start_date":"28.06.2011"}},{"lon":21.4321474,"id":4161113452,"type":"node","lat":41.9964949,"tags":{"historic":"memorial","subject:wikidata":"Q983917","tourism":"artwork","artwork_type":"statue","subject:wikipedia":"mk:Даме Груев","name:sr":"Даме Груев","name:mk":"Даме Груев","name:de":"Dame Gruew","name":"Даме Груев","inscription":"Даме Груев","name:fr":"Damé Grouev","name:en":"Dame Gruev","memorial":"statue"}},{"lon":21.4323054,"id":4161113453,"type":"node","lat":41.9968799,"tags":{"name:grc":"Ἰουστινιανός Α'","historic":"memorial","artist_name":"Роза Павлеска","tourism":"artwork","artwork_type":"statue","wikimedia_commons":"Category:Monument of Iustinianus I (Skopje)","int_name":"Justinian I.","name:de":"Justinian I.","name":"Јустинијан I","inscription":"Јустинијан I","name:fr":"Justinien Ier","name:en":"Justinian I","memorial":"statue","wikipedia":"mk:Споменик на Јустинијан I","wikidata":"Q12910626","start_date":"16.06.2011"}},{"lon":21.4344182,"id":4161249330,"type":"node","lat":41.9979046,"tags":{"name:de":"Olympias von Epirus","historic":"memorial","subject:wikidata":"Q223134","name":"Олимпија","inscription":"Олимпија","tourism":"artwork","name:en":"Olympias","artwork_type":"statue","memorial":"statue","subject:wikipedia":"mk:Олимпија"}},{"lon":21.4337226,"id":4183631289,"type":"node","lat":41.993303,"tags":{"historic":"monument","name":"Прометеј","name:en":"Prometheus","name:tr":"Prometheus"}},{"lon":21.439106,"id":4242928035,"type":"node","lat":41.9834333,"tags":{"historic":"monument","name":"Тодор Александров"}},{"lon":21.4369668,"id":4266031693,"type":"node","lat":41.986749,"tags":{"historic":"monument","name":"Стара Рампа"}},{"lon":21.4317487,"id":4271160712,"type":"node","lat":41.9936684,"tags":{"name:de":"Turm des Bey","historic":"monument","name":"Бегова кула","name:fr":"Tour du Bey","tourism":"attraction","name:en":"Bey's Tower","name:tr":"Bey kulesi"}},{"lon":22.7549207,"id":4278022934,"type":"node","lat":41.4166941,"tags":{"historic":"monument","name":"Гоце Делчев"}},{"lon":21.6749495,"id":4306447780,"type":"node","lat":41.3661079,"tags":{"historic":"memorial","name":"Борка Талески-Модерното \/ Лазо Филиповски-Лавски","name:en":"Borka Taleski \/ Lazo Filipovski","memorial":"war_memorial"}},{"lon":20.7412554,"id":4351691820,"type":"node","lat":40.9142149,"tags":{"name:ru":"Святой Наум","historic":"memorial","name":"Свети Наум","memorial":"statue","name:mk":"Свети Наум","name:sq":"Shën Naumi"}},{"lon":22.1903758,"id":4357166289,"type":"node","lat":41.736405,"tags":{"historic":"monument","name":"Споменик на загинатите евреи"}},{"lon":21.4375046,"id":4365876494,"type":"node","lat":42.000853,"tags":{"int_name":"Murat Paşa Camii","historic":"monument","name":"Мустафа-пашина џамија","name:en":"Murat Pasha Mosque","name:tr":"Murat Paşa Camii"}},{"lon":21.4333848,"id":4378846992,"type":"node","lat":41.9130467,"tags":{"historic":"castle","phone":"+38975225868","name":"Vila Varvarka","name:en":"Vila Varvarka","addr:street":"Varvara","name:mk":"Vila Varvarka"}},{"lon":21.4108745,"id":4380846206,"type":"node","lat":41.9949279,"tags":{"historic":"monument","name":"Споменик на Јуриј Гагарин","name:en":"Yuri Gagarin Monument"}},{"lon":21.4283664,"id":4477202789,"type":"node","lat":42.0016804,"tags":{"historic":"monument","name":"Вера Јоциќ","name:en":"Vera Jocik","name:mk":"Вера Јоциќ"}},{"lon":21.5532375,"id":4575831104,"type":"node","lat":41.3455416,"tags":{"access":"yes","historic":"monument","name":"Марко Мрњавчевиќ","name:en":"Marko Mrnjavchevikj","monument":"statue","name:mk":"Марко Мрњавчевиќ"}},{"lon":21.5505634,"id":4575841428,"type":"node","lat":41.3450704,"tags":{"historic":"monument","name":"Круме Кепески"}},{"lon":21.5506707,"id":4575841429,"type":"node","lat":41.3451329,"tags":{"historic":"monument","name":"Блаже Конески"}},{"lon":21.5505581,"id":4575841430,"type":"node","lat":41.3451792,"tags":{"historic":"monument","name":"Марко Цепенков"}},{"lon":20.9663459,"id":4585716598,"type":"node","lat":41.5130946,"tags":{"alt_name:mk":"Кичевско кале","historic":"castle","name":"Китино Кале","tourism":"attraction","name:en":"Kita Castle","name:mk":"Китино Кале","name:sq":"Kalaja Kërçovë"}},{"lon":22.3602199,"id":4589777068,"type":"node","lat":42.3110963,"tags":{"boundary":"marker","ref":"106","historic":"boundary_stone","natural":"peak","marker":"stone","name:sr-Latn":"Šupalj kamak","name":"Шуплив Камен","name:sr":"Шупаљ камак","ele":"1337"}},{"lon":20.7836677,"id":4745413067,"type":"node","lat":41.2788101,"tags":{"historic":"memorial","name":"Ботун"}},{"lon":22.5006786,"id":4751492691,"type":"node","lat":41.158263,"tags":{"artist:wikidata":"Q1090724","historic":"monument","ruins":"yes","name":"Споменик на слободата","name:en":"Monument of freedom","start_date":"1969"}},{"lon":20.6783749,"id":4972835907,"type":"node","lat":41.1736526,"tags":{"historic":"monument","name":"Сергеј Есенин"}},{"lon":22.1823517,"id":5055432425,"type":"node","lat":42.0769461,"tags":{"int_name":"Emin-beg Kula","historic":"monument","name":"Емин-бегова кула","tourism":"attraction","name:en":"Emin Bey Tower"}},{"lon":22.1826261,"id":5055432426,"type":"node","lat":42.0768838,"tags":{"int_name":"Ksteva Kula","historic":"monument","name":"Крстева кула","name:en":"Krste's Tower","name:mk":"Крстева кула"}},{"lon":22.6878453,"id":5055444424,"type":"node","lat":41.1949939,"tags":{"historic":"monument","name":"Споменик \u201EСолунски фронт\u201C од I светска војна","name:en":"World War I Salonica Front memorial","name:nl":"World War I Salonica Front monument"}},{"lon":22.1822635,"id":5055444426,"type":"node","lat":42.0768628,"tags":{"int_name":"Hadži Kostova Kula","historic":"monument","name":"Хаџикостова кула","name:en":"Hadji Kostov Tower"}},{"lon":22.1818109,"id":5055455123,"type":"node","lat":42.0792053,"tags":{"int_name":"Saat Kula","historic":"monument","name":"Саат-кула","name:en":"Clock Tower"}},{"lon":22.1809805,"id":5055455125,"type":"node","lat":42.0788289,"tags":{"int_name":"Zlatkovičeva Kula","historic":"monument","name":"Златковичева кула","name:en":"Zlatkovich Tower"}},{"lon":22.1794714,"id":5055455126,"type":"node","lat":42.0786957,"tags":{"int_name":"Simiḱeva Kula","historic":"monument","name":"Симиќева кула","name:en":"Simikj Tower"}},{"lon":22.6796979,"id":5098505521,"type":"node","lat":41.4409796,"tags":{"historic":"monument","name":"Струмица-Кристал-64"}},{"lon":20.7958058,"id":5115436809,"type":"node","lat":41.1142035,"tags":{"historic":"tomb","name":"Григор Прличев","name:en":"Grigor Prlicev grave"}},{"lon":22.9275511,"id":5253858494,"type":"node","lat":41.3384543,"tags":{"boundary":"marker","historic":"boundary_stone","natural":"peak","name:mk":"Тумба","int_name":"Tumba","name:el":"Τούμπα","marker":"stone","name:bg":"Тумба","name":"Тумба \/ Τούμπα","name:en":"Tumba","ref:Bulgaria":"1","wikipedia":"mk:Тумба (врв)","wikidata":"Q2458111","ele":"1880.5"}},{"lon":21.3415263,"id":5327471601,"type":"node","lat":41.006774,"tags":{"historic":"yes","amenity":"place_of_worship","name":"Св. Троица","name:pl":"Cerkiew św. Trójcy","tourism":"attraction","name:en":"St. Trinity","wikipedia":"mk:Св._Троица_(Битола)","denomination":"orthodox","religion":"christian"}},{"lon":22.5039935,"id":5541143272,"type":"node","lat":41.8845661,"tags":{"historic":"memorial","name":"Теракота","memorial":"yes"}},{"lon":20.6778868,"id":5551392390,"type":"node","lat":41.1745272,"tags":{"historic":"memorial","name":"Никола Кукунешоски - Дунѓерски","name:en":"Nikola Kukuneshoski - Dungjerski","memorial":"bust"}},{"lon":20.6779485,"id":5551392391,"type":"node","lat":41.1747311,"tags":{"historic":"memorial","name":"Крсте Јовановски","memorial":"bust"}},{"lon":20.6779833,"id":5551392392,"type":"node","lat":41.1749451,"tags":{"historic":"memorial","name":"Димче Кошаркоски","memorial":"bust"}},{"lon":20.6782194,"id":5551410938,"type":"node","lat":41.1756537,"tags":{"historic":"memorial","name":"Боро Шаин","memorial":"bust"}},{"lon":20.6781791,"id":5551410939,"type":"node","lat":41.1755185,"tags":{"historic":"memorial","name":"Јово Стефановски - Риле","memorial":"bust"}},{"lon":20.6781416,"id":5551410940,"type":"node","lat":41.1753893,"tags":{"historic":"memorial","name":"Разме Малески","memorial":"bust"}},{"lon":20.6781067,"id":5551410941,"type":"node","lat":41.1752843,"tags":{"historic":"memorial","name":"Петре Гончески - Гиле","memorial":"bust"}},{"lon":20.8033957,"id":5596272451,"type":"node","lat":41.05924,"tags":{"historic":"wayside_shrine","amenity":"church","name":"Св. Благовештение"}},{"lon":21.0506131,"id":5699016423,"type":"node","lat":41.0240503,"tags":{"name":"Eтнолошки музеј","tourism":"museum","name:en":"Ethnographic museum"}},{"lon":21.4323793,"id":5711419372,"type":"node","lat":41.9963577,"tags":{"name:de":"Goze Deltschew","historic":"memorial","name":"Гоце Делчев","name:fr":"Gotsé Deltchev","tourism":"artwork","name:en":"Goce Delchev","artwork_type":"statue","memorial":"statue","name:sr":"Гоце Делчев","name:mk":"Гоце Делчев"}},{"lon":21.9665342,"id":5722266446,"type":"node","lat":42.1003011,"tags":{"historic:civilization":"ancient_roman","historic":"archaeological_site","name":"Konjuh"}},{"lon":21.9658672,"id":5724919828,"type":"node","lat":42.0949995,"tags":{"historic:civilization":"ancient_roman","historic":"ruins","name":"Rotonda Konjuh"}},{"lon":21.9606298,"id":5724929432,"type":"node","lat":42.0995746,"tags":{"historic":"wayside_shrine","name":"Bosko Chapel"}},{"lon":22.289829,"id":5725139643,"type":"node","lat":41.7995125,"tags":{"historic:civilization":"ancient_roman","historic":"archaeological_site","name":"Bargala"}},{"lon":22.7542141,"id":5728312945,"type":"node","lat":41.3825161,"tags":{"historic":"archaeological_site","name":"Roman Bathhouse","tourism":"attraction"}},{"lon":22.7536848,"id":5729150992,"type":"node","lat":41.3826711,"tags":{"historic:civilization":"ottoman","historic":"ruins","inscription":"Hamam"}},{"lon":21.4434502,"id":5812672954,"type":"node","lat":42.0169571,"tags":{"historic":"monument","name":"Doma","name:tr":"Evim"}},{"lon":20.652723,"id":5833918548,"type":"node","lat":41.5939237,"tags":{"name":"Museum of Galichnik's cultural heritage","tourism":"museum"}},{"lon":21.4339472,"id":5841674945,"type":"node","lat":41.9963717,"tags":{"historic":"memorial","name:en":"The Bridge of Civilizations in Macedonia","memorial":"statue"}},{"lon":20.8255665,"id":5846663486,"type":"node","lat":41.0239386,"tags":{"historic":"memorial","name:pl":"kaplica","name:en":"chapel"}},{"lon":21.4319995,"id":5901740885,"type":"node","lat":41.9952759,"tags":{"name:de":"Geburtsort von Mutter Teresa","historic":"memorial","name":"Спомен плоча на Мајка Тереза","name:en":"Mother Teresa Old House Place","source":"survey","addr:postcode":"1000","addr:city":"Skopje"}},{"lon":20.8078335,"id":5926438456,"type":"node","lat":41.1057278,"tags":{"int_name":"Aard den Dolaard","historic":"memorial","name":"Ард ден Долард","name:en":"Aard den Dolaard","memorial":"plaque","name:nl":"Aard den Dolaard"}},{"lon":21.4422187,"id":5932385385,"type":"node","lat":41.958616,"tags":{"addr:housenumber":"292 А","historic":"castle","phone":"+38970403406","name":"Резиденцијата Главинов","opening_hours":"24\/7","name:en":"Residence Glavinov","addr:street":"Христо Татарчев","addr:postcode":"1000","email":"aleksglavinov@gmail.com","name:mk":"Резиденција Главинов"}},{"lon":21.4306041,"id":6054048485,"type":"node","lat":41.9957136,"tags":{"int_name":"Metodija Andonov - Čento Momument","historic":"memorial","name":"Методија Андонов - Ченто","memorial":"statue"}},{"lon":20.9681527,"id":6136130985,"type":"node","lat":41.9974433,"tags":{"historic":"monument","name":"terminal mitnitsa tetovo"}},{"lon":21.2926787,"id":6136130988,"type":"node","lat":41.9885405,"tags":{"historic":"monument","name":"patarina-160"}},{"lon":21.9562049,"id":6337100523,"type":"node","lat":41.8289715,"tags":{"website":"https:\/\/www.ancient-origins.net\/news-history-archaeology\/astronomical-alignment-geoglyph-republic-macedonia-020170","historic":"monument","name":"Kanda - Geoglif Sv. Nikole"}},{"lon":22.6569551,"id":6349721704,"type":"node","lat":41.7213441,"tags":{"historic":"memorial","name":"Споменик на Малешевскиот (Малешки) народноослободителен одред","inscription":"Малешевскиот (Малешки) народноослободителен одред бил територијална партизанска единица на НОВ и ПОМ. Формиран е во месноста Паруца, кота 1356 на пл. Плачковица и делувал од 25 август до ноември 1944. Одредот е формиран од 50 борци од Малешевијата. Ги нап","memorial":"plaque"}},{"lon":20.9282003,"id":6418857588,"type":"node","lat":41.0043725,"tags":{"archaeological_site":"fortification","historic:civilization":"byzantine","int_name":"Kale","access":"yes","historic":"archaeological_site","name":"Кале","name:en":"Kale","wikipedia":"mk:Кале (Шурленци)","wikidata":"Q20569402","ele":"1181","name:mk":"Кале"}},{"lon":22.5905605,"id":6471416045,"type":"node","lat":41.9856377,"tags":{"alt_name:mk":"Lukovica","archaeological_site":"fortification","historic:civilization":"ancient_roman","access":"yes","historic":"archaeological_site","source":"survey","source:ele":"https:\/\/ossp.katastar.gov.mk\/OSSP\/","name:mk":"Калата","alt_name":"Луковица","int_name":"Kalata","source:type":"http:\/\/www.promacedonia.org\/im3\/im_delchevo.htm","name":"Калата","name:en":"Kalata","wikipedia":"mk:Калата","wikidata":"Q43276459","ele":"523","start_date":"3rd century"}},{"lon":21.628172,"id":6535106716,"type":"node","lat":41.6952366,"tags":{"archaeological_site":"fortification","int_name":"Banjichko Kale","access":"yes","historic":"archaeological_site","name":"Бањичко Кале","name:en":"Banjica Fortress","wikipedia":"mk:Бањичко Кале","wikidata":"Q61121392","ele":"840"}},{"lon":20.7630424,"id":6563726510,"type":"node","lat":41.3747079,"tags":{"website":"https:\/\/en.m.wikipedia.org\/wiki\/People%27s_Liberation_Army_of_Macedonia","historic":"monument","name":"Mirče Acev Bataljon","inscription":"WWII"}},{"lon":21.4307922,"id":6821158694,"type":"node","lat":41.9943288,"tags":{"historic":"memorial","name":"2 musicians and one dancing man"}},{"lon":20.795694,"id":6833101185,"type":"node","lat":41.1120953,"tags":{"historic":"memorial","material":"stone","name":"Коста Абраш","memorial":"stele"}},{"lon":20.8071328,"id":6837039795,"type":"node","lat":41.1124032,"tags":{"historic":"memorial","name":"Henry Dunant"}},{"lon":21.3684104,"id":6901630767,"type":"node","lat":41.2754595,"tags":{"historic":"monument","name":"Љубе Грујоски","name:en":"Ljube Grujoski","wikidata":"Q20562690"}},{"lon":21.4291373,"id":6987611917,"type":"node","lat":41.9962134,"tags":{"name:ru":"Музей иллюзий","addr:housenumber":"10","tourism":"museum","name:en":"Museum of illusions","addr:street":"Максим Горки"}},{"lon":21.3865879,"id":7102244287,"type":"node","lat":41.9989569,"tags":{"addr:housenumber":"94","internet_access":"wlan","phone":"+389075435402","name":"Galerija RA","opening_hours":"Mo-Sa 10:00-20:00","tourism":"museum","name:en":"Gallery RA","addr:street":"Војвода Васил Чакаларов","name:hr":"Macedonian","addr:postcode":"1000","email":"galerija.ra@gmail.com"}},{"lon":22.7227512,"id":7124138432,"type":"node","lat":41.1857198,"tags":{"access":"yes","historic":"monument","name":"Споменик на Дојрана"}},{"lon":22.7233826,"id":7124138466,"type":"node","lat":41.1825947,"tags":{"access":"yes","historic":"monument","name":"Чешма Света Петка"}},{"lon":20.7762352,"id":7473901313,"type":"node","lat":41.1850048,"tags":{"historic":"memorial","name":"AXX110 \/ RA-42390"}},{"lon":21.6157628,"id":7473959214,"type":"node","lat":41.9779001,"tags":{"historic":"memorial","name":"PMK301 \/ PH-KXL","memorial":"aircraft"}},{"lon":21.5605466,"id":7475537800,"type":"node","lat":41.3724643,"tags":{"historic":"memorial","name":"Дабнички масакр","name:en":"Masacre of Dabnica","memorial":"war_memorial","wikipedia":"mk:Дабнички масакр"}},{"lon":21.6536957,"id":7504362426,"type":"node","lat":41.2064953,"tags":{"access":"yes","historic":"monument","tomb":"war_grave","name":"Толе Паша","inscription":"1868-1904","name:en":"Tole Pasha","wikipedia":"mk:Толе_Паша"}},{"lon":21.5476216,"id":7508523395,"type":"node","lat":42.022416,"tags":{"historic":"memorial","name":"Ацо Ангеловски","memorial":"war_memorial"}},{"lon":21.5480468,"id":7508523396,"type":"node","lat":42.0225556,"tags":{"historic":"memorial","name":"Кирил Петрушевски","memorial":"war_memorial"}},{"lon":21.5486015,"id":7508523397,"type":"node","lat":42.0227044,"tags":{"historic":"memorial","name":"Ерол Готак","memorial":"war_memorial"}},{"lon":21.1660504,"id":7564103281,"type":"node","lat":41.9764851,"tags":{"historic":"memorial","name":"Нане Наумоски","memorial":"war_memorial"}},{"lon":21.1773385,"id":7564103282,"type":"node","lat":41.977847,"tags":{"historic":"memorial","name":"Сашо Китаноски","memorial":"war_memorial"}},{"lon":21.1679024,"id":7564103283,"type":"node","lat":41.97753,"tags":{"historic":"memorial","name":"Бранко Секулоски","memorial":"war_memorial"}},{"lon":21.1745241,"id":7564125585,"type":"node","lat":41.9781971,"tags":{"historic":"memorial","name":"Горан Миноски","memorial":"war_memorial"}},{"lon":21.1713626,"id":7564125586,"type":"node","lat":41.977893,"tags":{"historic":"memorial","name":"Марко Деспотоски","memorial":"war_memorial"}},{"lon":21.1675604,"id":7564125587,"type":"node","lat":41.9767167,"tags":{"historic":"memorial","name":"Ердован Шабаноски","memorial":"war_memorial"}},{"lon":21.1694976,"id":7564125588,"type":"node","lat":41.9772958,"tags":{"historic":"memorial","name":"Љубе Грујоски","memorial":"war_memorial"}},{"lon":21.1717935,"id":7564125589,"type":"node","lat":41.9770406,"tags":{"historic":"memorial","name":"Дарко Велјаноски","memorial":"war_memorial"}},{"lon":21.1747438,"id":7564125590,"type":"node","lat":41.9767893,"tags":{"historic":"memorial","name":"Веби Рушитоски","memorial":"war_memorial"}},{"lon":21.1770879,"id":7564125591,"type":"node","lat":41.977042,"tags":{"historic":"memorial","name":"Пеце Секулоски","memorial":"war_memorial"}},{"lon":21.6256855,"id":7623493347,"type":"node","lat":41.3575814,"tags":{"historic":"memorial","material":"marble","name":"Карпалак","memorial":"plaque"}},{"lon":22.0284286,"id":7626158238,"type":"node","lat":41.4014262,"tags":{"historic":"memorial","material":"reinforced_concrete","wikipedia:sr":"Масакр у Ваташи","name":"Масакр во Ваташа","inscription":"Смртта стана немоќна пред нашата младост исправена, пред очите наши загледани, уште тоа утро во иднината.","name:en":"Vatasha Massacre","memorial":"war_memorial","wikipedia":"mk:Масакр во Ваташа","wikidata":"Q12908460"}},{"lon":21.5583071,"id":7626874879,"type":"node","lat":41.3428704,"tags":{"access":"yes","historic":"tomb","tomb":"tombstone","name":"Пере Тошев","name:en":"Pere Toshev","subject:wikipedia":"mk:Пере Тошев"}},{"lon":20.8721449,"id":7771077503,"type":"node","lat":41.4436592,"tags":{"historic":"memorial","material":"granite","name":"Duko Tasev","memorial":"war_memorial"}},{"lon":20.9229426,"id":7796229745,"type":"node","lat":41.4831122,"tags":{"historic":"monument","name":"Гоце Делчев"}},{"lon":20.9222623,"id":7796229746,"type":"node","lat":41.483575,"tags":{"historic":"monument","name":"Христо Узунов","name:en":"Hristo Uzunov"}},{"lon":20.7949057,"id":7817956982,"type":"node","lat":41.1150206,"tags":{"wheelchair":"yes","int_name":"Gorna Porta","historic":"city_gate","name":"Горна Порта","name:fr":"Porte supérieure","tourism":"attraction","name:en":"Upper Gate","entrance":"yes"}},{"lon":20.9658462,"id":7826733791,"type":"node","lat":41.4528994,"tags":{"date":"1904-08-04","historic":"battlefield","name":"Битката на Ѓурѓејца","name:en":"Battle of Gjurgjejca"}},{"lon":21.942062,"id":7833094677,"type":"node","lat":41.8646892,"tags":{"historic":"monument","name":"Споменик Св. Никола","name:en":"Monument of St. Nicholas"}},{"lon":21.9410121,"id":7833095397,"type":"node","lat":41.8644645,"tags":{"historic":"monument","name":"Споменик \u201EЛазар Колишевски\u201C"}},{"lon":21.9386585,"id":7836134125,"type":"node","lat":41.8627557,"tags":{"historic":"memorial","name":"Св. Илија"}},{"lon":21.5629735,"id":8048135011,"type":"node","lat":41.3464944,"tags":{"historic":"memorial","name":"Кире Гаврилоски-Јане \/ Круме Волнароски-Коља","name:en":"Kire Gavriloski-Jane \/ Krume Volnaroski-Kolja","memorial":"war_memorial"}},{"lon":21.5572532,"id":8063563409,"type":"node","lat":41.3421058,"tags":{"historic":"memorial","name":"Александар Македонски","name:en":"Alexander The Great","memorial":"plaque"}},{"lon":21.2464617,"id":8193704891,"type":"node","lat":41.3761727,"tags":{"historic":"memorial","name":"Мирослав Јоксимовиќ","name:en":"Miroslav Joksimovikj","memorial":"plaque","name:mk":"Мирослав Јоксимовиќ"}},{"lon":21.2488407,"id":8279921462,"type":"node","lat":41.3653786,"tags":{"historic":"monument","name":"Кица Петрески","name:en":"Kica Petreski"}},{"lon":20.6489384,"id":8412381211,"type":"node","lat":41.366045,"tags":{"historic":"memorial","name":"1. Бригада","name:en":"1st Brigade","source":"Mapbox","wikipedia":"mk:Прва македонска ударна бригада","wikidata":"Q982906","name:mk":"1. Бригада"}},{"lon":21.4292436,"id":8433354043,"type":"node","lat":41.9998632,"tags":{"access":"yes","historic":"monument","name":"Ослободителите на Скопје","name:en":"Monument to the Liberators of Skopje"}},{"lon":21.5549177,"id":8534237588,"type":"node","lat":41.3435127,"tags":{"historic":"memorial","name":"08.12.1941","inscription":"Да се сетиме на тие денови, денови на отпор и гордост, денови на борба и слобода!\n\nСеќавање на штрајкот на средношколската младина против бугарскиот фашистички окупатор на 8. Декември 1941 година.","memorial":"plaque"}},{"lon":20.9185104,"id":8677386085,"type":"node","lat":42.0673767,"tags":{"historic":"monument","name":"Вејце"}},{"lon":22.3544954,"id":8685631871,"type":"node","lat":42.03468,"tags":{"historic":"memorial","material":"reinforced_concrete","inscription":"Во борбата со бугарскиот фашистички окупатор во оваа месност на 11 јуни 1944 г. загина Вера Теодосиева Трајковска Которка (Родена 1925 г. во Куманово), борец на третата македонска ударна бригада. Партиско-политички работник на батаљон.\n4 Јули 1978 год.","memorial":"war_memorial"}},{"lon":21.4485415,"id":8880547039,"type":"node","lat":41.9998618,"tags":{"historic":"monument","name":"Генерал Михаило Апостолски"}},{"lon":21.4506665,"id":8883349543,"type":"node","lat":41.9988251,"tags":{"int_name":"General Mihajlo Apostolski","historic":"memorial","name":"Генерал Михајло Апостолски","memorial":"statue","name:mk":"Генерал Михајло Апостолски"}},{"lon":21.4412009,"id":8883349544,"type":"node","lat":41.9960184,"tags":{"historic":"monument","name":"Krste Petkov Misirkov","name:mk":"Крсте Петков Мисирков"}},{"lon":21.4408764,"id":8883349545,"type":"node","lat":41.9960802,"tags":{"historic":"monument","name":"Blaže Koneski","name:mk":"Блаже Конески"}},{"lon":21.0216359,"id":8901338318,"type":"node","lat":41.6560282,"tags":{"historic":"memorial","name":"Sultana"}},{"lon":20.881732,"id":8901338319,"type":"node","lat":41.7192252,"tags":{"historic":"memorial","name":"Xhemë Hasa"}},{"lon":20.9510739,"id":8901349094,"type":"node","lat":41.5964956,"tags":{"historic":"memorial","name":"Albanian Mother"}},{"lon":21.3208996,"id":8944545329,"type":"node","lat":41.0108476,"tags":{"historic":"wayside_shrine","name":"Св. Георгиј","name:en":"St. George","denomination":"orthodox","name:mk":"Св. Георгиј","religion":"christian"}},{"lon":20.799333,"id":8951219184,"type":"node","lat":41.1119818,"tags":{"access":"yes","historic":"monument","name":"Фаќач на чесниот крст","name:mk":"Фаќач на чесниот крст"}},{"lon":21.4326511,"id":9026624343,"type":"node","lat":41.9945304,"tags":{"historic":"monument","name":"Павел Шатев","name:en":"Pavel Šatev"}},{"lon":21.4332709,"id":9078062189,"type":"node","lat":41.993726,"tags":{"historic":"memorial","name":"Невена Георгиева-Дуња","inscription":"Невена Николова Георгиева-Дуња (25 јули 1925 во Скопје \u2014 16 декември 1942 во Нежилово) \u2014 македонска комунистка, припадничка на младинското, синдикалното и работничкото движење меѓу двете светски војни, учесник во НОВ од 1941 година. Со своите 16 години би","memorial":"statue"}},{"lon":21.0288552,"id":9080920713,"type":"node","lat":42.0640097,"tags":{"historic":"monument","name":"Ѓоко Лазаревски","name:en":"Gjoko Lazarevski"}},{"lon":21.027212,"id":9080921338,"type":"node","lat":42.0700178,"tags":{"historic":"tomb","tomb":"tombstone","name":"Теодорит"}},{"lon":21.0282911,"id":9086030878,"type":"node","lat":42.0669654,"tags":{"historic":"tomb","tomb":"tombstone","name":"Кирил Пејчиновиќ-Тетоец","name:en":"Kiril Pejchinovikj-Tetoec"}},{"lon":21.0285176,"id":9086030879,"type":"node","lat":42.0668701,"tags":{"historic":"monument","name":"Загинати Лешочани во војните 1903-2001","monument":"war_memorial"}},{"lon":20.798276,"id":9200215821,"type":"node","lat":41.1141534,"tags":{"historic":"memorial","name":"Нада Филева","name:en":"Nada Fileva"}},{"lon":21.4377285,"id":9200216072,"type":"node","lat":41.9986089,"tags":{"historic":"monument","name:en":"Soldier with gun on horse"}},{"lon":21.4185013,"id":9200216569,"type":"node","lat":42.0043082,"tags":{"historic":"memorial","name":"Dane kraptzew"}},{"lon":22.6364291,"id":9241877277,"type":"node","lat":41.4354106,"tags":{"name":"Museum Strumica","tourism":"museum"}},{"lon":22.5220207,"id":9241915460,"type":"node","lat":41.1488082,"tags":{"name":"Vardarski Rid","tourism":"museum"}},{"lon":21.4296159,"id":9269907745,"type":"node","lat":41.9918182,"tags":{"historic":"memorial","name":"Атентат на Киро Глигоров","name:en":"Atentat of Kiro Gligorov","memorial":"plaque"}},{"lon":21.6070578,"id":9633312940,"type":"node","lat":41.3643261,"tags":{"access":"yes","historic":"wayside_shrine","name":"Св. Петка","name:en":"St. Parascheva","denomination":"macedonian_orthodox","religion":"christian"}},{"lon":21.3293819,"id":9653138816,"type":"node","lat":41.018858,"tags":{"ref":"11056","historic":"aircraft","name":"Ф-86Е","tourism":"attraction","name:en":"F-86E","wikipedia":"en:F-86","operator":"ВВС на СФРЈ","operator:en":"SFRYAF"}},{"lon":21.3292773,"id":9653178117,"type":"node","lat":41.0186718,"tags":{"ref":"14078","historic":"aircraft","name":"Ф-86Д","tourism":"attraction","name:en":"F-86D","wikipedia":"en:F-86","operator":"ВВС на СФРЈ","operator:en":"SFRYAF"}},{"lon":22.4105061,"id":9661472617,"type":"node","lat":41.9135927,"tags":{"historic":"monument","name":"Браќата Просветители Св. Кирил и Методиј"}},{"lon":22.410612,"id":9661483288,"type":"node","lat":41.9143473,"tags":{"historic":"monument","name":"Љупчо Сантов"}},{"lon":21.4572557,"id":9663795290,"type":"node","lat":41.204511,"tags":{"historic":"tomb","tomb":"war_grave","name":"Братска гробница","inscription":"1904 г.\nВојвода Велко Скочивирчето\nХристо Романовски, с. Брник\nДимитирија Берански, с. Беранци\nДимитар Генимале, Битола\nКостадин Генимале, Битола\nВелко Долимановски, с. Српци\nСтрезо Милески, с. Клепач\nСтојан Гворчески\nТасе Костовски, с. Круша"}},{"lon":21.6216919,"id":9673875423,"type":"node","lat":41.9755167,"tags":{"ref":"VAM-120","historic":"aircraft","name":"Сухои Су-25УБ","tourism":"attraction","name:en":"Sukhoi Su25UB","wikipedia":"mk:Сухој Су-25","wikidata":"Q192137","operator":"ВВС на Македонија","operator:en":"MkAF"}},{"lon":21.6219516,"id":9673875424,"type":"node","lat":41.9754577,"tags":{"ref":"VAM-121","historic":"aircraft","name":"Сухои Су-25К","tourism":"attraction","name:en":"Sukhoi Su25K","wikipedia":"mk:Сухој Су-25","wikidata":"Q192137","operator":"ВВС на Македонија","operator:en":"MkAF"}},{"lon":21.6221983,"id":9673875425,"type":"node","lat":41.9753556,"tags":{"ref":"VAM-122","historic":"aircraft","name":"Сухои Су-25К","tourism":"attraction","name:en":"Sukhoi Su25K","wikipedia":"mk:Сухој Су-25","wikidata":"Q192137","operator":"ВВС на Македонија","operator:en":"MkAF"}},{"lon":21.6224322,"id":9673875426,"type":"node","lat":41.975287,"tags":{"ref":"VAM-123","historic":"aircraft","name":"Сухои Су-25К","tourism":"attraction","name:en":"Sukhoi Su25K","wikipedia":"mk:Сухој Су-25","wikidata":"Q192137","operator":"ВВС на Македонија","operator:en":"MkAF"}},{"lon":21.4705534,"id":9689907651,"type":"node","lat":41.2658411,"tags":{"historic":"wayside_shrine","denomination":"macedonian_orthodox","religion":"christian"}},{"lon":21.5377119,"id":9709707074,"type":"node","lat":41.3615324,"tags":{"access":"yes","historic":"tomb","tomb":"rock-cut"}},{"lon":21.6200758,"id":9723408984,"type":"node","lat":41.4286415,"tags":{"historic":"tomb","tomb":"tombstone","name":"Игуменија Катерина"}},{"lon":20.8876605,"id":9927093810,"type":"node","lat":41.8781835,"tags":{"historic":"monument","name":"Naim Frasheri"}},{"lon":20.8835051,"id":9927105104,"type":"node","lat":41.878351,"tags":{"access":"yes","historic":"monument","name":"Naser Ademi"}},{"lon":20.883467,"id":9927105105,"type":"node","lat":41.8782156,"tags":{"access":"yes","historic":"monument","name":"Deshmoret e Ushtrise Clirimtare Kombetare"}},{"lon":20.7970433,"id":9945894317,"type":"node","lat":41.1123275,"tags":{"name":"House of Lambeski","tourism":"museum"}},{"lon":22.1778987,"id":10006874002,"type":"node","lat":42.0001506,"tags":{"historic":"memorial","name":"Јаким Д Стојковски","memorial":"bust"}},{"lon":22.5027575,"id":10173766195,"type":"node","lat":41.8768098,"tags":{"historic:civilization":"ancient_roman","historic":"castle","castle_type":"defensive","name":"Viničko Kale"}},{"lon":20.6778798,"id":10204019571,"type":"node","lat":41.1757975,"tags":{"historic":"memorial","name":"Нико Нестор-Дживджан","memorial":"bust"}},{"lon":20.6791018,"id":10204019572,"type":"node","lat":41.1756353,"tags":{"int_name":"Drini dent","historic":"memorial","phone":"+389 46 781 143","amenity":"dentist","name":"Дрини дент","opening_hours":"Mo-Fr 10:00-17:00; Sa 09:00-14;00","healthcare":"dentist"}},{"lon":21.255996,"id":10248980740,"type":"node","lat":41.3734433,"tags":{"historic":"wayside_shrine"}},{"lon":21.3631045,"id":10733732764,"type":"node","lat":42.0080767,"tags":{"gauge":"600","historic":"locomotive","name":"99.4-025","tourism":"attraction"}},{"lon":21.4618597,"id":10733732766,"type":"node","lat":41.9780627,"tags":{"gauge":"760","historic":"locomotive","name":"83-064","tourism":"attraction"}},{"lon":21.4328484,"id":10913797906,"type":"node","lat":41.9964125,"tags":{"name:de":"Denkmal \u201EAssassinen und Schiffer von Thessaloniki\u201C","historic":"memorial","name":"Споменик \u201EСолунски атентатори и Гемиџии\u201C","source":"survey"}},{"lon":21.288822,"id":10914553383,"type":"node","lat":41.9538189,"tags":{"historic:civilization":"ancient_roman","access":"yes","historic":"ruins","ruins":"church","name":"Света Троица и Свети Ѓорѓија","name:en":"Holy Trinity and Holy George"}},{"lon":21.3299172,"id":10932198705,"type":"node","lat":41.0748026,"tags":{"website":"http:\/\/www.muzejkrklino.mk\/en\/","tourism":"museum","name:en":"Auto and etno museum \"Filip\""}},{"lon":21.1617392,"id":11107939919,"type":"node","lat":41.8117124,"tags":{"archaeological_site":"settlement","historic:civilization":"prehistoric","historic":"archaeological_site","name":"Голема Пеш","name:en":"Golema Pesht","wikipedia":"mk:Голема Пеш","wikidata":"Q20565511"}},{"lon":21.0319272,"id":11158893505,"type":"node","lat":41.5875575,"tags":{"historic":"memorial","memorial":"plaque"}},{"lon":21.0214707,"id":11158893506,"type":"node","lat":41.5495562,"tags":{"historic":"memorial","memorial":"plaque"}},{"lon":21.0453863,"id":11158893547,"type":"node","lat":41.6173834,"tags":{"historic":"memorial","memorial":"plaque"}},{"lon":21.0000492,"id":11158893548,"type":"node","lat":41.5423453,"tags":{"historic":"memorial","memorial":"plaque"}},{"lon":20.9638123,"id":11171381533,"type":"node","lat":41.5127983,"tags":{"tourism":"museum"}},{"lon":null,"id":32463336,"type":"way","lat":null,"tags":{"historic:civilization":"ancient_roman","int_name":"Skupi","historic":"archaeological_site","name":"Скупи","tourism":"attraction","historic:period":"principate","name:en":"Scupi","wikipedia":"mk:Скупи","wikidata":"Q149203","wikimedia_commons":"Category:Scupi"}},{"lon":null,"id":32812963,"type":"way","lat":null,"tags":{"payment:notes":"yes","addr:country":"MK","fee":"yes","name:pl":"Muzeum Macedońskie","tourism":"museum","addr:city:en":"Skopje","addr:postcode":"1000","wikimedia_commons":"Category:Museum of Macedonia, Skopje","building":"public","addr:city":"Cкoпje","name:tr":"Makedonya müzesi","int_name":"Muzej na Makedonija","addr:street:en":"Prohor Pcinski","name:bg":"Музей на Македония","name":"Музеј на Македонија","name:fr":"Musée de Macédoine","name:en":"Museum of Macedonia","addr:street":"Прохор Пчински","wikipedia":"mk:Музеј на Македонија","wikidata":"Q3133557","name:es":"Museo de Macedonia"}},{"lon":null,"id":32885596,"type":"way","lat":null,"tags":{"int_name":"Francuski Grobišta","historic":"monument","landuse":"cemetery","name":"Француски гробишта","name:pl":"Cmentarz francuski","name:en":"French Cemetery"}},{"lon":null,"id":32887087,"type":"way","lat":null,"tags":{"website":"https:\/\/msu.mk\/home\/","charge":"50 MKD","amenity":"arts_centre","addr:country":"MK","fee":"yes","name:pl":"Muzeum Sztuki Współczesnej","tourism":"museum","addr:city:en":"Skopje","addr:postcode":"1000","wikimedia_commons":"Category:Contemporary Art Museum (North Macedonia)","building":"yes","addr:city":"Cкoпje","addr:street:en":"Samoilova","phone":"+389 2 3117734","name":"Музеј на современата уметност","opening_hours":"Tu-Sa 10:00-15:00; Su 09:00-13:00","name:en":"Contemporary Art Museum of Macedonia","addr:street":"Самоилова","wikipedia":"mk:Музеј на современата уметност (Скопје)","fax":"+389 2 3110123","wikidata":"Q3329592","email":"msu-info@msuskopje.org.mk","name:zh":"当代艺术博物馆"}},{"lon":null,"id":33100249,"type":"way","lat":null,"tags":{"int_name":"Tetovsko Kale","historic":"castle","name":"Тетовско Кале","name:en":"Tetovo Fortress"}},{"lon":null,"id":34093752,"type":"way","lat":null,"tags":{"wheelchair":"no","int_name":"Samuilova tvrdina","historic":"castle","castle_type":"fortress","name":"Самуилова тврдина","name:pl":"Twierdza Samuela","tourism":"attraction","name:en":"Samuil's Fortress","wikipedia":"mk:Самуилова тврдина","wikidata":"Q1283801"}},{"lon":null,"id":34093853,"type":"way","lat":null,"tags":{"wheelchair":"no","historic":"archaeological_site","amenity":"theatre","name:pl":"Teatr Antyczny","tourism":"attraction","name:tr":"Antik Tiyatro","int_name":"Antički Teatar","name:lt":"Antikinis Teatras","name":"Антички театар","name:fr":"Théatre antique","name:en":"Ancient Theatre","wikipedia":"mk:Антички театар (Охрид)","wikidata":"Q3180446"}},{"lon":null,"id":34094279,"type":"way","lat":null,"tags":{"archaeological_site":"city","int_name":"Plaošnik","historic":"archaeological_site","ruins":"wall","name":"Плаошник","name:fr":"Site dit « Lieu plat sur la colline » (Plaoshnik)","tourism":"attraction","name:en":"Plaoshnik","wikipedia":"mk:Плаошник","wikidata":"Q7201685"}},{"lon":null,"id":37956139,"type":"way","lat":null,"tags":{"int_name":"Heraklea Linkestis","historic":"archaeological_site","ruins":"yes","name":"Хераклеа Линкестис","name:fr":"Heraclea Lyncestis","tourism":"attraction","name:en":"Heraclea Lyncestis","wikidata":"Q1142395"}},{"lon":null,"id":38580676,"type":"way","lat":null,"tags":{"int_name":"Magaza","name":"Магаза","tourism":"museum","name:en":"Magaza gallery","building":"yes"}},{"lon":null,"id":150596710,"type":"way","lat":null,"tags":{"name":"Спомен Костурница","name:int":"Spomen Kosturnica","tourism":"museum","name:en":"Kosturnica Memorial","building":"yes"}},{"lon":null,"id":159068224,"type":"way","lat":null,"tags":{"int_name":"Spomenik Kosturnica","historic":"monument","name":"Споменик Костурница","building":"yes"}},{"lon":null,"id":172171547,"type":"way","lat":null,"tags":{"website":"https:\/\/nationalgallery.mk\/","amenity":"arts_centre","addr:country":"MK","fee":"yes","tourism":"museum","addr:city:en":"Skopje","addr:postcode":"1000","building":"yes","addr:city":"Cкoпje","int_name":"Nacionalna Galerija -Daut Pašin Amam","phone":"+389 2 3133102","name":"Национална галерија \u201EДаут-пашин амам\u201C","opening_hours":"Tu-Su 10:00-18:00","name:en":"Daut Pasha Hamam National Gallery","wikipedia":"en:National Gallery of Macedonia","email":"contact@nationalgallery.mk"}},{"lon":null,"id":172180530,"type":"way","lat":null,"tags":{"wheelchair":"limited","fee":"yes","roof:shape":"hipped","building:levels":"3","tourism":"museum","addr:postcode":"1000","building":"public","name:en":"Museum of the Macedonian struggle","roof:levels":"0","wikipedia":"en:Museum of the Macedonian Struggle (Skopje)","fax":"+389 2 3256 668","email":"mmb@mmb.org.mk","website":"http:\/\/mmb.org.mk\/w\/","addr:country":"MK","addr:city:en":"Skopje","wikimedia_commons":"Category:Museum of the Macedonian Struggle (Skopje)","addr:city":"Cкoпje","name:tr":"Museum of the","addr:housenumber":"1","int_name":"Muzej na Makedonskata borba","name:de":"Museum des mazedonischen Kampfes","phone":"+389 2 3256 667","name":"Музеј на македонската борба","opening_hours":"Tu-Su 10:00-18:00","addr:street":"11 Март","wikidata":"Q986531"}},{"lon":null,"id":172186249,"type":"way","lat":null,"tags":{"website":"https:\/\/www.holocaustfund.org\/","historic":"memorial","addr:country":"MK","tourism":"museum","addr:city:en":"Skopje","addr:postcode":"1000","wikimedia_commons":"Category:Holocaust Memorial Center for the Jews of Macedonia","building":"public","addr:city":"Cкoпje","name:tr":"Holocaust Memorial Center for the Jews of Macedonia","addr:housenumber":"2","int_name":"Memorijalen centar na holokaustot na Evreite na Makedonija","addr:street:en":"Samoilova","phone":"+389 2 3122697","name":"Меморијален центар на холокаустот на Евреите од Македонија","name:en":"Holocaust Memorial Center for the Jews of Macedonia","addr:street":"Самоилова","wikipedia":"en:Holocaust Memorial Center for the Jews of Macedonia","fax":"+389 2 3232310","wikidata":"Q3333150","email":"info@holocaustfund.org.mk","name:zh":"犹太人大屠杀纪念中心"}},{"lon":null,"id":176040285,"type":"way","lat":null,"tags":{"website":"http:\/\/www.mgs.org.mk\/","addr:country":"MK","fee":"yes","name:pl":"Muzeum Miasta Skopje","tourism":"museum","addr:city:en":"Skopje","addr:postcode":"1000","wikimedia_commons":"Category:Museum of the City of Skopje","building":"yes","addr:city":"Cкoпje","alt_name":"Стара Железничка Станица","phone":"+389 2 3114742","name":"Музеј на Град Скопје","name:en":"Museum of the City of Skopje","wikipedia":"en:Museum of the City of Skopje","wikidata":"Q922143"}},{"lon":null,"id":176051871,"type":"way","lat":null,"tags":{"wheelchair":"yes","website":"http:\/\/www.memorialhouseofmotherteresa.org\/","addr:country":"MK","fee":"no","tourism":"museum","addr:city:en":"Skopje","addr:postcode":"1000","wikimedia_commons":"Category:Mother Teresa Memorial Home (Skopje)","building":"yes","addr:city":"Cкoпje","name:tr":"Rahibe Terasa Anıt Evi","int_name":"Muzej-kuḱa na Majka Tereza","addr:street:en":"Makedonija","phone":"+389 2 3290674","name":"Спомен куќа на Мајка Тереза","opening_hours":"Mo-Fr 09:00-20:00, Sa-Su 09:00-14:00","name:en":"Memorial House of Mother Teresa","addr:street":"Македонија","wikipedia":"en:Memorial House of Mother Teresa","wikidata":"Q587617","email":"info@memorialhouseofmotherteresa.org","name:zh":"特蕾莎修女纪念馆"}},{"lon":null,"id":179291828,"type":"way","lat":null,"tags":{"historic":"church","amenity":"place_of_worship","name:pl":"Monastyr Św. Nauma","tourism":"attraction","building":"yes","denomination":"macedonian_orthodox","name:mk":"Манастир \u201EСвети Наум\u201C","name:sq":"Manastiri i Shën Naumit","name:tr":"Aziz Naum Manastırı","religion":"christian","alt_name":"Свети Наум","int_name":"Manastir Sveti Naum","name:de":"Kloster Sveti Naum","name":"Манастир \u201EСвети Наум\u201C","name:fr":"Monastère Saint-Naum","name:en":"Monastery of Saint Naum","wikipedia":"en:Monastery of Saint Naum","name:cs":"klášter svatého Nauma","wikidata":"Q164216","alt_name:cs":"klášter Svatý Naum"}},{"lon":null,"id":180360206,"type":"way","lat":null,"tags":{"historic:civilization":"byzantine","historic":"aqueduct","name:pl":"Akwedukt w Skopje","tourism":"attraction","wikimedia_commons":"Category:Skopje Aqueduct","layer":"1","int_name":"Akvadukt Skopje","name":"Аквадукт Скопје","name:en":"Skopje Aqueduct","bridge":"aqueduct","wikipedia":"en:Skopje Aqueduct","wall":"dry_stone","wikidata":"Q862032"}},{"lon":null,"id":181727867,"type":"way","lat":null,"tags":{"alt_name":"Осоговски Манастир","int_name":"Manastir Sv. Joakim Osogovski","historic":"monastery","alt_name:en":"Osogovski Manastir","amenity":"monastery","name":"Манастир Св. Јоаким Осоговски","tourism":"attraction","name:en":"Monastery of St. Joakim Osogovski","wikidata":"Q1283734","denomination":"orthodox","name:mk":"Манастир Св. Јоаким Осоговски","religion":"christian"}},{"lon":null,"id":181986735,"type":"way","lat":null,"tags":{"historic":"yes","amenity":"monastery","is_in":"Лесново","tourism":"attraction","building":"yes","denomination":"orthodox","religion":"christian","alt_name":"Манастир \u201EСв. Архангел Михаил\u201C","int_name":"Lesnovski Manastir","alt_name:en":"Saint Michael's Monastery","name":"Лесновски манастир","name:en":"Lesnovo Monastery","wikipedia":"mk:Лесновски манастир"}},{"lon":null,"id":182927657,"type":"way","lat":null,"tags":{"int_name":"Manastir Sv. Bogorodica","historic":"yes","amenity":"place_of_worship","name":"Манастир Св. Богородица","tourism":"attraction","name:en":"St. Holy Mother of God Monastery","leisure":"garden","place_of_worship:type":"monastery","denomination":"orthodox","religion":"christian"}},{"lon":null,"id":182933841,"type":"way","lat":null,"tags":{"fenced":"yes","int_name":"Manastir Sv. Nikola","historic":"yes","amenity":"place_of_worship","name":"Манастир Св. Никола","tourism":"attraction","name:en":"Saint Nicholas Monastery","denomination":"orthodox","religion":"christian"}},{"lon":null,"id":184307286,"type":"way","lat":null,"tags":{"int_name":"Srednovekovna Kula","access":"yes","historic":"tower","man_made":"tower","name":"Средновековна Кула","name:en":"Medieval Tower","building":"yes","tower:type":"defensive"}},{"lon":null,"id":184313963,"type":"way","lat":null,"tags":{"int_name":"Srednovekovna Kula","access":"no","historic":"tower","man_made":"tower","name":"Средновековна Кула","name:en":"Medieval Tower","wikidata":"Q122459539","building":"yes","tower:type":"defensive"}},{"lon":null,"id":189909367,"type":"way","lat":null,"tags":{"int_name":"Bargala","historic":"ruins","name":"Баргала","tourism":"attraction","name:en":"Bargala","wikipedia":"mk:Баргала"}},{"lon":null,"id":192121734,"type":"way","lat":null,"tags":{"historic":"yes","amenity":"place_of_worship","name":"Џамија Ајдар Кади","name:pl":"Meczet Ajdar Kadi","tourism":"attraction","addr:street":"Цане Василев","wikipedia":"mk:Ајдар-кади_џамија","building":"mosque","addr:city":"Битола","religion":"muslim"}},{"lon":null,"id":192125506,"type":"way","lat":null,"tags":{"alt_name:mk":"Кичевско кале","historic":"monument","name":"Китино Кале","tourism":"attraction","name:en":"Kita Castle","building":"yes","name:mk":"Китино Кале","name:sq":"Kalaja e Kërçovës"}},{"lon":null,"id":199052359,"type":"way","lat":null,"tags":{"historic":"archaeological_site","name":"Стара базилика","name:en":"Old Basilica"}},{"lon":null,"id":199052629,"type":"way","lat":null,"tags":{"historic":"archaeological_site","name":"Римска цистерна","name:en":"Roman Cistern"}},{"lon":null,"id":199056987,"type":"way","lat":null,"tags":{"historic":"archaeological_site","name":"Старохристијанска базилика"}},{"lon":null,"id":199056988,"type":"way","lat":null,"tags":{"historic":"archaeological_site","name":"Римска Куќа"}},{"lon":null,"id":199056990,"type":"way","lat":null,"tags":{"historic":"archaeological_site","name":"Римска куќа"}},{"lon":null,"id":199056991,"type":"way","lat":null,"tags":{"historic":"archaeological_site","name":"Ранохристијанска базилика"}},{"lon":null,"id":208711817,"type":"way","lat":null,"tags":{"wheelchair":"no","name":"11 Октомври 1941","tourism":"museum","name:en":"October the 11th, 1941","building":"yes","operator":"Завод и Музеј на град Прилеп"}},{"lon":null,"id":209092691,"type":"way","lat":null,"tags":{"historic:civilization":"ancient_roman;macedonian","website":"http:\/\/www.stobi.mk","historic":"archaeological_site","facebook":"https:\/\/www.facebook.com\/Stobaeus\/","name:pl":"Stobi","tourism":"attraction","int_name":"Stobi","phone":"+389 75 210 752","name":"Стоби","opening_hours":"Mo-Sa 08:00-16:00","name:en":"Stobi","wikipedia":"mk:Стоби","wikidata":"Q1371168","email":"contact@stobi.mk"}},{"lon":null,"id":212703196,"type":"way","lat":null,"tags":{"archaeological_site":"fortification","int_name":"Carevi Kuli","historic":"archaeological_site","fortification_type":"hill_fort","name":"Цареви Кули","tourism":"attraction","name:en":"Czar\u2019s Towers"}},{"lon":null,"id":217561610,"type":"way","lat":null,"tags":{"name":"Музеј на НОВ","tourism":"museum","building":"yes"}},{"lon":null,"id":217563724,"type":"way","lat":null,"tags":{"historic":"memorial","name":"Спомен куќа Тоше Проески","building":"yes"}},{"lon":null,"id":217568679,"type":"way","lat":null,"tags":{"image":"https:\/\/upload.wikimedia.org\/wikipedia\/commons\/f\/fe\/%D0%9C%D0%B0%D0%BA%D0%B5%D0%B4%D0%BE%D0%BD%D0%B8%D1%83%D0%BC_-_%D0%9A%D1%80%D1%83%D1%88%D0%B5%D0%B2%D0%BE.jpg","historic":"monument","artist_name":"Jovan Grabulovski;Iskra Grabuloska","name":"Македониум","tourism":"museum","wikidata":"Q2717956","building":"yes"}},{"lon":null,"id":217836998,"type":"way","lat":null,"tags":{"barrier":"wire_fence","historic":"ruins","name":"Базилика \"Свети Еразмо\""}},{"lon":null,"id":217849357,"type":"way","lat":null,"tags":{"historic":"monastery","name":"Манастир \u201EСвети Наум","name:en":"The Monastery of Saint Naum","name:cs":"Klášter sv. Nauma","building":"yes","name:sq":"Manastiri i Shën Naumit"}},{"lon":null,"id":217931793,"type":"way","lat":null,"tags":{"area":"yes","int_name":"Bay of Bones","motor_vehicle":"no","man_made":"pier","name":"Залив на Коските","opening_hours":"Tu-Su 09:00-16:15","tourism":"museum","name:en":"Bay of Bones","name:cs":"Záliv kostí","foot":"yes","tourism_1":"attraction"}},{"lon":null,"id":222153861,"type":"way","lat":null,"tags":{"historic":"archaeological_site"}},{"lon":null,"id":223008200,"type":"way","lat":null,"tags":{"historic":"archaeological_site","name":"Кале"}},{"lon":null,"id":224254694,"type":"way","lat":null,"tags":{"addr:housenumber":"44А","phone":"+38970619597;+38970356621","name":"Музеј на Илинденското востание и Крушевската Република","tourism":"museum","name:en":"Museum of the Ilinden Uprising and the Republic of Krushevo","addr:street":"Димитар Бербероски - Таќа Бербер","wikipedia":"mk:Музеј на Илинденското востание и Крушевската Република","addr:postcode":"7550","wikidata":"Q12287450","building":"yes","addr:city":"Крушево"}},{"lon":null,"id":226160304,"type":"way","lat":null,"tags":{"int_name":"Roman Theater of Heraclea Lyncestis","historic":"ruins","name":"Roman Theater of Heraclea Lyncestis","name:fr":"Théatre romain de Heraclea Lyncestis","name:en":"Roman Theater of Heraclea Lyncestis","wikipedia":"en:Heraclea Lyncestis","building":"yes"}},{"lon":null,"id":226161294,"type":"way","lat":null,"tags":{"historic:civilization":"ancient_roman","historic":"ruins","name":"Антички театар","name:en":"ancient theater of Stobi"}},{"lon":null,"id":227215121,"type":"way","lat":null,"tags":{"historic":"ruins","building":"yes"}},{"lon":null,"id":227433408,"type":"way","lat":null,"tags":{"int_name":"Vardarski Rid","historic":"archaeological_site","name":"Вардарски Рид","tourism":"attraction","name:en":"Vardar Hill","wikipedia":"mk:Вардарски рид"}},{"lon":null,"id":229632394,"type":"way","lat":null,"tags":{"area":"yes","website":"https:\/\/vici.org\/vici\/Idomenia","historic":"archaeological_site","name":"Isar-Marvinci","wikipedia":"en:Idomenae"}},{"lon":null,"id":229930502,"type":"way","lat":null,"tags":{"addr:country":"MK","fee":"yes","name:pl":"Muzeum Archeologiczne","tourism":"museum","addr:city:en":"Skopje","addr:postcode":"1000","wikimedia_commons":"Category:Archaeological Museum of Macedonia","building":"public","addr:city":"Cкoпje","name:tr":"Kuzey Makedonya Arkeoloji Müzesi","int_name":"Arheološki Muzej na Makedonija","name:de":"Archäologisches Museum von Mazedonien","name":"Археолошки музеј на Македонија","opening_hours":"Tu-Su 10:00-18:00","name:en":"Archaeological Museum of Macedonia","wikipedia":"mk:Археолошки музеј (Скопје)","wikidata":"Q65295584"}},{"lon":null,"id":231344771,"type":"way","lat":null,"tags":{"historic:civilization":"neolithic","int_name":"Tumba Madžari","historic":"archaeological_site","name":"Тумба Маџари","tourism":"attraction","name:en":"Tumba Madzhari","wikipedia":"mk:Тумба (Маџари)","wikidata":"Q3408436","wikimedia_commons":"Category:Tumba Madžari"}},{"lon":null,"id":232843018,"type":"way","lat":null,"tags":{"historic":"castle","ruins":"yes","name":"Маркови Кули","tourism":"attraction","name:en":"Markovi Kuli"}},{"lon":null,"id":239422349,"type":"way","lat":null,"tags":{"historic":"monument","addr:country":"MK","addr:city:en":"Skopje","addr:postcode":"1000","wikimedia_commons":"Category:Porta Makedonija","building":"yes","addr:city":"Cкoпje","name:tr":"Porta Macedonia","addr:housenumber":"4А","int_name":"Porta Makedonija","name:lt":"Triumfo arka","phone":"+389 2 3151141","name":"Порта Македонија","name:en":"Porta Macedonia","addr:street":"11 Октомври","wikipedia":"en:Porta Macedonia","wikidata":"Q3078453","email":"PortaMK@mmb.org.mk"}},{"lon":null,"id":240346454,"type":"way","lat":null,"tags":{"historic":"archaeological_site","name":"Градиште","name:en":"Gradishte"}},{"lon":null,"id":240622723,"type":"way","lat":null,"tags":{"historic":"archaeological_site","name":"Стибера"}},{"lon":null,"id":241085465,"type":"way","lat":null,"tags":{"wheelchair":"limited","historic":"yes","amenity":"place_of_worship","name:pl":"Kolorowy meczet","tourism":"attraction","addr:postcode":"1220","building":"mosque","addr:city":"Tetovo","denomination":"sunni","name:sq":"Xhamia e Pashës (Xh. e Larme)","religion":"muslim","name":"Шарена Џамија","opening_hours":"24\/7","name:en":"Pasha's Mosque","addr:street":"Браќа Миладинови","wikipedia":"pl:Kolorowy_Meczet_(Tetowo)","wikidata":"Q1009896"}},{"lon":null,"id":243981081,"type":"way","lat":null,"tags":{"historic":"archaeological_site","name":"Стибера","name:en":"Stibera","wikipedia":"en:Stymbara (Macedonia)","wikidata":"Q12910730"}},{"lon":null,"id":244812164,"type":"way","lat":null,"tags":{"name":"Ел Калем","tourism":"museum","building":"yes"}},{"lon":null,"id":295526114,"type":"way","lat":null,"tags":{"note":"Bezisten is the core of Skopje's Old Bazaar","int_name":"Bezisten","historic":"yes","name":"Безистен","addr:city":"skopje"}},{"lon":null,"id":334649006,"type":"way","lat":null,"tags":{"historic":"archaeological_site","name":"Антигона"}},{"lon":null,"id":338675543,"type":"way","lat":null,"tags":{"area":"yes","historic":"memorial","name":"Могила на непобедените","tourism":"attraction","name:en":"Mound of the undefeated","highway":"pedestrian","wikidata":"Q3400797"}},{"lon":null,"id":356302520,"type":"way","lat":null,"tags":{"historic":"church","amenity":"place_of_worship","landuse":"religious","name":"Св. Великомаченик Георгиј","tourism":"attraction","name:en":"Church of St. George","wikipedia":"mk:Црква \u201EСв. Великомаченик Георгиј\u201C - Старо Нагоричане","addr:city":"Старо Нагоричане","denomination":"orthodox","religion":"christian"}},{"lon":null,"id":411079115,"type":"way","lat":null,"tags":{"historic":"monument","surface":"paving_stones","bridge:structure":"arch","name:uk":"Кам'яний міст","name:pl":"Kamienny Most","name:sr":"Душанов мост","layer":"1","name:sq":"Ura e Gurit","name:tr":"Taşköprü","name:de":"Steinbrücke","smoothness":"intermediate","lit":"yes","name:bg":"Камен мост","name":"Камен мост","name:fr":"Pont de pierre","name:en":"Stone Bridge","bridge":"yes","highway":"pedestrian","foot":"yes","name:es":"Puente de Piedra"}},{"lon":null,"id":414261893,"type":"way","lat":null,"tags":{"archaeological_site":"fortification","historic:civilization":"medieval","access":"yes","barrier":"city_wall","historic":"archaeological_site","name":"Трескавец","name:en":"Treskavec"}},{"lon":null,"id":417361056,"type":"way","lat":null,"tags":{"historic":"memorial","name":"Меморијален комплекс на паднатите борци на Револуцијата","architect:wikidata":"Q700592","memorial":"war_memorial","wikipedia":"mk:Меморијален комплекс на паднатите борци на револуцијата","wikidata":"Q12286474"}},{"lon":null,"id":417361065,"type":"way","lat":null,"tags":{"historic:civilization":"middle-ages","access":"yes","historic":"ruins","name":"Исар","wikipedia":"mk:Штипска тврдина","wikidata":"Q20570361"}},{"lon":null,"id":422287440,"type":"way","lat":null,"tags":{"barrier":"wall","historic":"citywalls"}},{"lon":null,"id":424490169,"type":"way","lat":null,"tags":{"historic:civilization":"ancient_roman","int_name":"Skupi","historic":"archaeological_site","name":"Скупи","historic:period":"principate","name:en":"Scupi","wikipedia":"mk:Скупи","wikidata":"Q149203","wikimedia_commons":"Category:Scupi"}},{"lon":null,"id":439347125,"type":"way","lat":null,"tags":{"fee":"no","name":"Музеј Штип","tourism":"museum","wikipedia":"mk:Завод и музеј (Штип)","wikidata":"Q3329714","building":"yes"}},{"lon":null,"id":443072144,"type":"way","lat":null,"tags":{"name":"Безистен Штип","tourism":"museum","wikipedia":"mk:Безистен (Штип)","wikidata":"Q32963909","building":"yes"}},{"lon":null,"id":445672540,"type":"way","lat":null,"tags":{"int_name":"Begov amam","fee":"yes","name":"Бегов амам","tourism":"museum","name:en":"Bey's Hamam","designation":"Hamam"}},{"lon":null,"id":445947375,"type":"way","lat":null,"tags":{"historic":"monument","name":"Гоце Делчев"}},{"lon":null,"id":453048240,"type":"way","lat":null,"tags":{"historic":"monastery","amenity":"place_of_worship","name":"св. Тројица","name:en":"Sv. Trojitca","building":"yes","religion":"christian"}},{"lon":null,"id":470931894,"type":"way","lat":null,"tags":{"historic":"ruins","building":"yes"}},{"lon":null,"id":470931895,"type":"way","lat":null,"tags":{"historic":"ruins","building":"yes"}},{"lon":null,"id":474873958,"type":"way","lat":null,"tags":{"alt_name:mk":"Скопска тврдина","area":"yes","wheelchair":"limited","historic":"castle","tourism":"attraction","name:sr":"Скопско кале","wikimedia_commons":"Category:Skopje Fortress","alt_name:sr":"Скопска тврђава","name:sq":"Kalaja e Shkupit","name:tr":"Üsküp Kalesi","name:ru":"Крепость Скопье","alt_name":"Тврдина Кале","int_name":"Skopsko Kale","ruins":"yes","name":"Скопско кале","opening_hours":"07:00-19:00","name:en":"Skopje Fortress","wikipedia":"mk:Скопско Kале","wikidata":"Q1262367"}},{"lon":null,"id":477021071,"type":"way","lat":null,"tags":{"addr:housenumber":"58-a","historic":"castle","name":"Штакле","opening_hours":"24\/7","name:en":"Castle Stakle","addr:street":"Менделеева","addr:postcode":"1000","building":"yes","name:mk":"Штакле"}},{"lon":null,"id":502848605,"type":"way","lat":null,"tags":{"int_name":"Great Basilica","historic":"ruins","name":"Голема Базилика","name:fr":"Grande basilique","name:en":"Great Basilica","building":"yes"}},{"lon":null,"id":513644247,"type":"way","lat":null,"tags":{"historic":"monastery","ruins":"yes","name":"Света Недела","name:en":"Holy Sunday"}},{"lon":null,"id":514513452,"type":"way","lat":null,"tags":{"historic":"archaeological_site","name":"Билазора","wikipedia":"bg:Билазора","wikidata":"Q2929164"}},{"lon":null,"id":553070358,"type":"way","lat":null,"tags":{"historic":"monument","name":"Колонада"}},{"lon":null,"id":603405553,"type":"way","lat":null,"tags":{"historic:civilization":"ancient_roman","historic":"archaeological_site","name":"Roman & Ottoman Bathouse"}},{"lon":null,"id":625505115,"type":"way","lat":null,"tags":{"historic":"building","building:use":"foodservice","internet_access":"wlan","amenity":"cafe","internet_access:fee":"no","roof:shape":"pyramidal","building:levels":"1","cuisine":"ice_cream","building":"yes","toilets":"yes","name":"Baptisterium","outdoor_seating":"yes","building:material":"masonry"}},{"lon":null,"id":677981810,"type":"way","lat":null,"tags":{"historic":"archaeological_site","name":"Geoglif Sv. Nikole"}},{"lon":null,"id":679215630,"type":"way","lat":null,"tags":{"access":"yes","historic":"monument","name":"Александар Македонски","wikimedia_commons":"File:Споменикот на Александар Македонски во Штип.jpg"}},{"lon":null,"id":704079412,"type":"way","lat":null,"tags":{"historic":"monument","name":"Велешки Гемиџија"}},{"lon":null,"id":807724824,"type":"way","lat":null,"tags":{"historic":"archaeological_site","name":"Црквиште"}},{"lon":null,"id":808916278,"type":"way","lat":null,"tags":{"boundary":"protected_area","date":"2001-08-08","historic":"battlefield","name":"Масакр кај Карпалак","name:en":"Karpalak massacre","wikipedia":"mk:Масакр кај Карпалак"}},{"lon":null,"id":821781063,"type":"way","lat":null,"tags":{"barrier":"fence","historic":"archaeological_site","name":"Гориче","name:en":"Goriche","wikipedia":"mk:Гориче (Белче)","wikidata":"Q20565635"}},{"lon":null,"id":834714782,"type":"way","lat":null,"tags":{"museum":"history","name":"Muzeu \"Dëshmorët e kombit\"","tourism":"museum","building":"yes"}},{"lon":null,"id":838638808,"type":"way","lat":null,"tags":{"historic":"memorial","name":"Спомен плоча - Ѓурѓејца","memorial":"war_memorial"}},{"lon":null,"id":839150822,"type":"way","lat":null,"tags":{"name":"Народен Музеј","tourism":"museum","building":"yes"}},{"lon":null,"id":839150823,"type":"way","lat":null,"tags":{"historic":"memorial","name":"Споменик на Народоослободителната борба"}},{"lon":null,"id":839150824,"type":"way","lat":null,"tags":{"historic":"monument","name":"Споменик \u201EАлександар Серафимов\u201C"}},{"lon":null,"id":849621044,"type":"way","lat":null,"tags":{"name":"Ловен Дом","tourism":"museum","building":"yes"}},{"lon":null,"id":858650998,"type":"way","lat":null,"tags":{"addr:housenumber":"ББ","historic":"memorial","name":"Могила на непобедените","opening_hours":"24\/7","addr:street":"Цар Самоил","memorial":"war_memorial","wikipedia":"mk:Могила на непобедените","addr:postcode":"7500","leisure":"park","wikidata":"Q3400797","addr:city":"Прилеп"}},{"lon":null,"id":875859703,"type":"way","lat":null,"tags":{"archaeological_site":"fortification","historic:civilization":"ancient_roman","access":"yes","historic":"archaeological_site","name":"Кале","name:en":"Kale","wikipedia":"mk:Кале (Зрзе)","wikidata":"Q23037874"}},{"lon":null,"id":888421002,"type":"way","lat":null,"tags":{"historic:civilization":"early_christian","access":"yes","historic":"archaeological_site","name":"Archaeological site of Mancevci, Early Christian Basilica 5 AC","religion":"christian"}},{"lon":null,"id":896149100,"type":"way","lat":null,"tags":{"tourism":"museum","addr:postcode":"7550","building":"yes","addr:city":"Крушево","name:mk":"Леарница","addr:housenumber":"0","museum":"history","phone":"+38970356621;+38975202123","name":"Леарница","name:en":"Foundry","addr:street":"Тома Никлев","wikipedia":"mk:Леарница (Крушево)","wikidata":"Q12284846"}},{"lon":null,"id":899302511,"type":"way","lat":null,"tags":{"archaeological_site":"fortification","historic:civilization":"medieval","access":"yes","historic":"archaeological_site","name":"Пешта","name:en":"Peshta"}},{"lon":null,"id":899461223,"type":"way","lat":null,"tags":{"access":"yes","historic":"castle","castle_type":"fortress","name":"Марков Ѕид","name:en":"Marko's Wall"}},{"lon":null,"id":899465453,"type":"way","lat":null,"tags":{"historic:civilization":"medieval","access":"permissive","barrier":"wall","historic":"archaeological_site","amenity":"monastery","name":"Мариовски Манастир","name:en":"Monastery of Mariovo","wikipedia":"mk:Манастир Св. Никола (Манастир)","wikidata":"Q97232594","denomination":"orthodox","name:mk":"Мариовски Манастир","religion":"christian"}},{"lon":null,"id":899472741,"type":"way","lat":null,"tags":{"archaeological_site":"settlement","historic:civilization":"ancient_macedonian;medieval","historic":"archaeological_site","name":"Градот \/ Маркови Кули","name:en":"Gradot \/ Markovi Kuli","wikipedia":"mk:Градок - Маркови Кули","wikidata":"Q98793101"}},{"lon":null,"id":899479869,"type":"way","lat":null,"tags":{"archaeological_site":"fortification","historic":"archaeological_site","name":"Градиште","name:en":"Gradishte"}},{"lon":null,"id":899479870,"type":"way","lat":null,"tags":{"archaeological_site":"fortification","historic":"archaeological_site","name":"Бабо","name:en":"Babo"}},{"lon":null,"id":899481750,"type":"way","lat":null,"tags":{"archaeological_site":"necropolis","historic:civilization":"ancient_macedonian","historic":"archaeological_site","name":"Старо Бонче","name:en":"Staro Bonche","wikipedia":"mk:Старо Бонче (археолошко наоѓалиште)","wikidata":"Q12910706"}},{"lon":null,"id":899481751,"type":"way","lat":null,"tags":{"archaeological_site":"city","historic:civilization":"ancient_roman","access":"yes","historic":"archaeological_site","name":"Пелагон","name:en":"Pelagon","wikipedia":"mk:Пелагон (град)","wikidata":"Q12909483"}},{"lon":null,"id":903328344,"type":"way","lat":null,"tags":{"archaeological_site":"fortification","historic:civilization":"medieval","access":"yes","historic":"archaeological_site","name":"Кула","name:en":"Kula","wikipedia":"mk:Кула (Македонски Брод)","wikidata":"Q20566679"}},{"lon":null,"id":905876263,"type":"way","lat":null,"tags":{"museum":"history","name":"1. Бригада","tourism":"museum","name:en":"1 Бригада","source":"Mapbox","wikipedia":"mk:Прва македонска ударна бригада","wikidata":"Q982906","building":"yes"}},{"lon":null,"id":906807150,"type":"way","lat":null,"tags":{"historic":"tomb","amenity":"place_of_worship","name":"Св. Петар","name:en":"St. Peter","building":"yes","denomination":"macedonian_orthodox","name:mk":"Св. Петар","religion":"christian"}},{"lon":null,"id":981848250,"type":"way","lat":null,"tags":{"archaeological_site":"fortification","historic":"archaeological_site","name":"Лешок","name:en":"Leshok"}},{"lon":null,"id":1044325422,"type":"way","lat":null,"tags":{"historic":"monument","name":"Споменин на Слободата","name:en":"Freedom Monument"}},{"lon":null,"id":1050278253,"type":"way","lat":null,"tags":{"historic":"archaeological_site","name":"Девини Кули","name:en":"Devini Kuli","wikipedia":"mk:Девини Кули","wikidata":"Q20566325","name:mk":"Девини Кули"}},{"lon":null,"id":1054098604,"type":"way","lat":null,"tags":{"historic":"archaeological_site","name":"Св. Никола","name:en":"St. Nicholas","wikipedia":"mk:Св. Никола (Зрзе)","wikidata":"Q23037880"}},{"lon":null,"id":1054395729,"type":"way","lat":null,"tags":{"name:bg":"Конева къща","name":"Спомен-дом Блаже Конески","tourism":"museum","name:en":"Blazhe Koneski Memorial House","wikipedia":"mk:Спомен-дом \u201EБлаже Конески\u201C","wikidata":"Q12910621","building":"yes","name:mk":"Спомен-дом Блаже Конески"}},{"lon":null,"id":1102966574,"type":"way","lat":null,"tags":{"barrier":"fence","historic":"memorial","material":"stone","name":"19.12.1942","memorial":"war_memorial"}},{"lon":null,"id":1109661815,"type":"way","lat":null,"tags":{"historic:civilization":"ancient_roman","access":"yes","historic":"ruins","ruins":"castle","name":"Viničko Kale"}},{"lon":null,"id":1126512716,"type":"way","lat":null,"tags":{"historic:civilization":"prehistoric","barrier":"fence","historic":"archaeological_site","name":"Куќата на Ѓошеви","name:en":"House of Gjoshev","wikipedia":"mk:Куќата на Ѓошеви (Варош)","wikidata":"Q97229810","name:mk":"Куќата на Ѓошеви"}},{"lon":null,"id":1127758201,"type":"way","lat":null,"tags":{"access":"unknown","barrier":"city_wall","historic":"castle","castle_type":"fortress","name":"Битолска Тврдина","name:en":"Fortress of Bitola","wikipedia":"mk:Битолска тврдина","wikidata":"Q3078416","name:mk":"Битолска Тврдина"}},{"lon":null,"id":1136815836,"type":"way","lat":null,"tags":{"historic":"archaeological_site","name":"Мучеинци","name:en":"Mucheinci","wikipedia":"mk:Мучеинци (Лознани)","wikidata":"Q25553802","name:mk":"Мучеинци"}},{"lon":null,"id":1143766963,"type":"way","lat":null,"tags":{"addr:housenumber":"18","museum":"history","name":"Музеј на Битола","tourism":"museum","name:en":"Museum of Bitola","addr:street":"Св. Климент Охридски","wikipedia":"mk:Народен музеј - Битола","addr:postcode":"7000","wikidata":"Q12906499","building":"yes","addr:city":"Битола"}},{"lon":null,"id":1143774305,"type":"way","lat":null,"tags":{"addr:housenumber":"20","name":"Меморијален музеј Народен херој Кузман Јосифоски-Питу","tourism":"museum","name:en":"People's hero Kuzman Josifoski-Pitu Memorial museum","addr:street":"Мара Јосифоска-Ѓурѓа","wikipedia":"mk:Меморијален музеј \u201EКузман Јосифоски-Питу\u201C","addr:postcode":"7500","wikidata":"Q97229937","building":"yes","addr:city":"Прилеп","name:mk":"Меморијален музеј Народен херој Кузман Јосифоски-Питу"}},{"lon":null,"id":1144895703,"type":"way","lat":null,"tags":{"website":"https:\/\/www.muzejprilep.org.mk","tourism":"museum","addr:postcode":"7500","building":"yes","addr:city":"Прилеп","name:mk":"Музеј","addr:housenumber":"400","museum":"history","name":"Музеј","name:en":"Museum","addr:street":"Александар Македонски","wikipedia":"mk:Завод и музеј \u2014 Прилеп","wikidata":"Q42587325"}},{"lon":null,"id":1146996488,"type":"way","lat":null,"tags":{"historic":"monument","name":"Св Кирил и Методи"}},{"lon":null,"id":1152990867,"type":"way","lat":null,"tags":{"name":"Goce Delchev Memorial House","tourism":"museum","building":"yes"}},{"lon":null,"id":1217195019,"type":"way","lat":null,"tags":{"museum":"history","museum_type":"national","name":"Mémorial de Bitola","tourism":"museum","building":"yes"}},{"lon":null,"id":1218569938,"type":"way","lat":null,"tags":{"museum":"local","name":"Спомен-куќа на Татарчеви","tourism":"museum","name:en":"Tatarchev House","wikipedia":"mk:Спомен-куќа_на_Татарчеви","wikidata":"Q43754803","building":"yes","addr:city":"Ресен"}},{"lon":null,"id":5360062,"type":"relation","lat":null,"tags":{"note":"Concert venue & Lapidarium of the Museum of Macedonia","amenity":"arts_centre","addr:country":"MK","description":"Concert venue","tourism":"museum","addr:city:en":"Skopje","type":"multipolygon","addr:postcode":"1000","building":"yes","note:mk":"Концертен двор и Лапидариум на Музејот на Македонија","addr:city":"Cкoпje","int_name":"Kursumli An","name":"Куршумли-ан","wikidata":"Q1273251"}},{"lon":null,"id":6620184,"type":"relation","lat":null,"tags":{"historic:civilization":"medieval","access":"yes","historic":"castle","tourism":"attraction","type":"multipolygon","name:mk":"Маркови Кули","ruins":"wall","castle_type":"fortress","landuse":"meadow","name":"Маркови Кули","name:en":"Marko's Towers","wikipedia":"en:Markovi Kuli","wikidata":"Q1283784"}},{"lon":null,"id":15078753,"type":"relation","lat":null,"tags":{"archaeological_site":"settlement","historic:civilization":"prehistoric","historic":"archaeological_site","name":"Куќата на Мантови","name:en":"House of Mantov","wikipedia":"mk:Куќата на Мантови (Варош)","type":"multipolygon","wikidata":"Q98356997","name:mk":"Куќата на Мантови"}}]